name,phone,email,address,postalZip,region,currency,jobRole
Alana Salinas,(791) 460-0770,non.lobortis@travelers.com,680-704 Pellentesque St.,81525,Indiana,"$78,919.59 ",Risk_Manager
Sybill Franks,1-943-294-1140,sagittis.nullam.vitae@travelers.com,395-4910 Nibh. Avenue,35936,Oklahoma,"$94,955.75 ",Claims_Examiner
Jenna Mason,1-731-334-1292,quis.arcu.vel@travelers.com,Ap #237-8885 Gravida Rd.,74794,Missouri,"$48,246.45 ",Financial_Analyst
Justine Maxwell,1-336-337-6269,et.ultrices@travelers.uk,584-5076 Curae St.,16007,Colorado,"$41,404.90 ",Insurance_Agent/Broker
Simone Logan,(574) 601-3874,sed.pede@travelers.uk,Ap #656-4515 Pede. Rd.,86345,Tennessee,"$72,069.77 ",Operations_Manager
Silas Lowe,1-828-223-3529,praesent.luctus@travelers.uk,Ap #605-4577 Tristique Street,47165,Michigan,"$62,906.67 ",Operations_Manager
Duncan Jenkins,(848) 797-8318,at.sem@travelers.uk,"293-1303 Ultrices, St.",70213,Missouri,"$92,944.53 ",Product_Manager
Malachi Sanford,(314) 883-9986,luctus@travelers.com,Ap #320-735 Aenean St.,72502,Tennessee,"$59,271.51 ",Underwriter
Heather May,1-371-270-0698,quis@travelers.com,675-3394 Et Ave,61585,Maryland,"$77,851.02 ",Data_Analyst
Shea Pace,(740) 572-5586,eu.sem.pellentesque@travelers.com,"P.O. Box 127, 9788 At Ave",36102,Alabama,"$55,813.49 ",Actuary
Petra Howell,(517) 187-6675,dolor.vitae@travelers.com,"P.O. Box 950, 4471 Sed Street",83937,Oklahoma,"$57,930.75 ",Product_Manager
Shea Ross,(338) 417-7781,ipsum.primis@travelers.uk,Ap #370-1766 Sed Rd.,76760,California,"$42,919.57 ",Claims_Examiner
Quinn Ware,(314) 353-6428,nisi.magna@travelers.uk,"Ap #894-777 Ut, Street",75633,Alabama,"$71,311.23 ",Sales_Manager
Beau Underwood,1-521-253-9344,sed.dictum@travelers.uk,Ap #402-6081 Scelerisque Rd.,72429,Idaho,"$99,002.85 ",Loss_Control_Specialist
Courtney Mcgee,1-886-356-1293,lorem.ut@travelers.uk,Ap #579-1457 Molestie Avenue,68396,Pennsylvania,"$73,996.63 ",Actuary
Wing Miranda,(886) 806-7575,pellentesque.habitant@travelers.uk,"P.O. Box 462, 591 Nisl Street",34517,Illinois,"$41,480.94 ",Insurance_Agent/Broker
Caryn Gregory,(302) 543-0669,in.lorem@travelers.com,9823 Dui Rd.,22816,Connecticut,"$75,880.61 ",Claims_Adjuster
Flynn Norton,1-922-190-8315,tempor@travelers.com,Ap #275-5179 Pede. Road,86554,Colorado,"$51,683.62 ",IT_Specialist
Debra Gardner,1-886-862-7682,dapibus.id@travelers.uk,"Ap #236-6146 Consectetuer, St.",46686,Connecticut,"$46,029.92 ",Underwriter
Nina Sims,1-382-214-8596,feugiat.placerat@travelers.uk,216-5292 Aenean St.,61782,Indiana,"$46,750.71 ",Financial_Analyst
Galvin Serrano,(589) 357-9464,tellus@travelers.uk,Ap #328-2935 Quam St.,62545,Alabama,"$90,052.43 ",Customer_Service_Representative
Jenna King,(364) 190-7552,placerat.augue.sed@travelers.com,7121 Sagittis Ave,99717,Wyoming,"$57,196.90 ",Insurance_Agent/Broker
Quin Tyler,(286) 657-9820,aliquam.tincidunt.nunc@travelers.com,Ap #233-2317 Pretium St.,58471,Virginia,"$96,855.11 ",Sales_Manager
Simon Sykes,1-166-351-6139,eu@travelers.com,"Ap #963-2535 Non, St.",80409,Massachusetts,"$88,748.79 ",Underwriter
Leah Adams,(808) 676-2508,sit.amet@travelers.com,6548 Suspendisse Rd.,35234,Delaware,"$40,274.83 ",Product_Manager
Kessie Jones,(413) 933-4180,nec.malesuada@travelers.uk,Ap #265-2506 Per St.,24228,Nevada,"$83,364.91 ",Marketing_Specialist
Bradley Long,(262) 853-9330,rhoncus.nullam.velit@travelers.com,5987 Lorem Ave,68871,Delaware,"$54,536.13 ",IT_Specialist
Alden Franklin,1-311-788-3498,tincidunt@travelers.uk,"P.O. Box 770, 2907 Duis Avenue",40724,Oregon,"$61,047.93 ",Actuary
Gannon Underwood,(469) 726-8003,consequat.nec@travelers.com,Ap #993-5819 Eu Avenue,19265,Alabama,"$96,920.23 ",Compliance_Officer
Quentin Soto,(612) 153-7267,sollicitudin.commodo.ipsum@travelers.uk,Ap #175-3633 Consectetuer St.,52778,Wisconsin,"$65,678.52 ",Claims_Examiner
Yael Mitchell,(843) 246-0935,ut.semper.pretium@travelers.com,386-5605 Egestas. Avenue,81177,Alaska,"$64,168.59 ",Operations_Manager
Quon Mathews,1-513-642-7103,diam.sed.diam@travelers.com,"P.O. Box 105, 9868 Phasellus Road",88565,Louisiana,"$40,357.14 ",Risk_Manager
Dara Bell,(665) 528-7684,at.nisi@travelers.com,Ap #721-6463 Sapien Avenue,88458,Arizona,"$46,944.55 ",Compliance_Officer
Cooper Rose,(538) 762-4570,et.malesuada.fames@travelers.com,4922 Faucibus Ave,91711,Wisconsin,"$53,459.88 ",Claims_Examiner
Germane Mullins,1-558-892-2988,magna.a.tortor@travelers.com,1868 Torquent Street,87855,Alaska,"$79,309.12 ",Customer_Service_Representative
Matthew Cruz,(873) 841-5835,montes@travelers.uk,Ap #592-6111 Pellentesque Road,86649,Hawaii,"$82,286.56 ",Legal_Counsel
Honorato Hatfield,(854) 403-6098,non.leo@travelers.com,"117-4727 Nec, Rd.",25242,Maine,"$86,019.23 ",Sales_Manager
Cameron Burris,(653) 755-3318,in@travelers.com,905-8814 A Rd.,59700,Connecticut,"$82,650.30 ",Compliance_Officer
Eaton Hurley,1-689-272-2017,nibh@travelers.com,Ap #174-7235 Vitae Street,17672,California,"$43,116.01 ",Operations_Manager
Cullen Merrill,1-403-383-1315,velit@travelers.uk,Ap #990-2038 A Road,83288,Michigan,"$58,846.26 ",HR_Specialist
Wing Baldwin,1-558-541-8777,amet.ornare@travelers.com,Ap #395-5691 Justo. St.,98588,Colorado,"$65,300.88 ",Compliance_Officer
Igor Salazar,1-343-389-5486,magnis.dis.parturient@travelers.uk,698-1649 Tellus Ave,86497,Nevada,"$68,031.26 ",Insurance_Agent/Broker
Alexis Snider,(663) 734-1387,sapien.imperdiet@travelers.com,371-7889 Sagittis. St.,72571,Delaware,"$56,914.04 ",HR_Specialist
Ishmael Jensen,(318) 265-6624,tristique@travelers.uk,Ap #746-3449 Semper Avenue,24513,Florida,"$41,537.99 ",Risk_Manager
Mia Wong,(690) 980-1488,mollis.non.cursus@travelers.com,Ap #242-5338 Dictum. St.,62881,Pennsylvania,"$53,132.83 ",IT_Specialist
Ifeoma Murray,1-718-839-5215,arcu.vestibulum@travelers.uk,2324 Sem Rd.,54374,Massachusetts,"$79,317.77 ",Claims_Adjuster
Kibo Gill,(806) 643-1547,sit.amet.dapibus@travelers.uk,"P.O. Box 282, 1567 Eu, Avenue",86657,Wyoming,"$63,140.70 ",Financial_Analyst
Idona Torres,(167) 513-8471,turpis@travelers.com,4971 Ultricies Av.,26685,Wisconsin,"$94,068.31 ",Actuary
Rahim Walsh,(432) 490-6831,sem.ut@travelers.uk,381-5884 Magna Av.,99676,Hawaii,"$53,097.49 ",Claims_Examiner
Steven Blackburn,1-944-916-5464,placerat.eget@travelers.uk,"P.O. Box 134, 8078 Ac Road",55497,Wisconsin,"$42,679.52 ",Product_Manager
Jamal Campos,(113) 363-2881,laoreet.ipsum@travelers.com,1240 Nam Avenue,65684,Texas,"$95,624.62 ",Compliance_Officer
Ashely Rogers,(824) 415-5728,diam.pellentesque@travelers.uk,"784-9295 Urna, Av.",37282,Massachusetts,"$50,212.74 ",Marketing_Specialist
Mercedes Stanton,(852) 854-6512,faucibus.orci@travelers.com,8723 Proin Rd.,23712,Arizona,"$64,111.71 ",Risk_Manager
Orla Reeves,1-445-142-8215,quis.pede@travelers.com,"P.O. Box 258, 1465 Gravida Road",77188,Illinois,"$99,859.45 ",Operations_Manager
Cedric Hawkins,(766) 849-7172,nec@travelers.com,249-8977 Vivamus Ave,29892,Arkansas,"$59,033.97 ",Training_and_Development_Manager
Mari Larsen,1-409-532-7544,vitae@travelers.com,Ap #548-6872 Malesuada St.,70748,Oklahoma,"$81,307.31 ",Training_and_Development_Manager
Judah Rogers,1-226-618-7312,magna@travelers.uk,Ap #591-620 Neque Ave,71355,Nevada,"$90,642.11 ",Training_and_Development_Manager
Charissa Schmidt,(747) 578-4273,in.faucibus.orci@travelers.uk,"P.O. Box 512, 4003 Dui Av.",78268,Arizona,"$84,677.19 ",Underwriter
Keith Frederick,(388) 884-3967,elit.elit@travelers.com,Ap #651-1566 Interdum Road,76452,Louisiana,"$87,890.37 ",Claims_Adjuster
Talon Pennington,(685) 571-1640,fermentum@travelers.com,803-5261 Dignissim St.,93132,Louisiana,"$72,102.69 ",HR_Specialist
Ori Cooper,1-398-392-1521,mi.felis@travelers.uk,"Ap #637-6759 A, Rd.",52622,Oregon,"$52,806.42 ",Legal_Counsel
Angelica Sweeney,1-880-800-6566,neque@travelers.uk,848-4343 Sodales Rd.,26428,Louisiana,"$50,366.49 ",HR_Specialist
Merritt Hampton,(786) 179-9612,at.iaculis.quis@travelers.com,577-9369 Quisque Ave,87346,Oregon,"$87,470.04 ",Compliance_Officer
Sylvester Short,(975) 404-2467,facilisis@travelers.com,"P.O. Box 450, 9084 Aptent St.",51747,Maine,"$66,327.38 ",Operations_Manager
Mark Rojas,1-841-632-2940,non.vestibulum@travelers.com,Ap #822-4107 Eu Ave,35051,Arizona,"$95,790.18 ",Operations_Manager
Kareem Garza,1-864-176-2761,eu.odio.phasellus@travelers.uk,Ap #727-8812 Ac St.,99777,Indiana,"$52,451.54 ",Claims_Adjuster
Rosalyn Larson,(899) 824-4691,magna.cras@travelers.uk,"P.O. Box 265, 6285 Bibendum Road",99704,Oregon,"$44,931.72 ",Data_Analyst
Rama Sutton,1-581-138-6642,penatibus.et@travelers.uk,"Ap #636-7716 Montes, Rd.",76652,Maryland,"$56,421.73 ",Claims_Adjuster
Noah Abbott,(235) 909-7204,quam.elementum@travelers.uk,3183 Taciti Street,62695,Wisconsin,"$93,233.48 ",Claims_Adjuster
Maris O'Neill,1-837-683-5617,mus.aenean@travelers.uk,825-5752 Aliquam Street,87842,Missouri,"$69,726.74 ",Claims_Adjuster
Caleb Bowen,1-326-222-4830,semper.pretium@travelers.com,9864 Scelerisque St.,54726,Arkansas,"$51,610.44 ",Underwriter
Mark Munoz,1-837-647-1365,quis.pede@travelers.uk,190-4585 Neque. St.,95057,Nevada,"$84,648.23 ",Loss_Control_Specialist
Kimberly Neal,1-958-695-3876,nunc.quisque@travelers.uk,118 Metus. Rd.,76535,Delaware,"$92,845.41 ",IT_Specialist
Sharon Benson,(821) 493-3242,nullam.suscipit.est@travelers.com,Ap #607-734 Elit. Road,96953,Alabama,"$67,753.14 ",Loss_Control_Specialist
Bradley Daniel,1-628-873-6052,ullamcorper.magna.sed@travelers.uk,"P.O. Box 902, 948 In Road",76866,Mississippi,"$61,242.46 ",Legal_Counsel
Tanisha Carr,1-732-671-8068,nascetur.ridiculus@travelers.uk,786-5025 Magna. Av.,99937,Maine,"$46,065.37 ",Customer_Service_Representative
Eagan Shepherd,(971) 627-4539,ultrices.iaculis@travelers.com,3269 Integer Av.,79212,Wyoming,"$54,096.22 ",HR_Specialist
Scarlett Fleming,(323) 233-7835,donec@travelers.com,"P.O. Box 300, 776 Nulla Rd.",85585,Washington,"$80,305.08 ",HR_Specialist
Judah Dominguez,(485) 682-5658,tortor.integer@travelers.uk,Ap #163-8848 Ornare Street,86215,Kentucky,"$87,856.45 ",Financial_Analyst
Colette Avery,1-458-884-3158,congue.in@travelers.com,"638-5577 Vulputate, St.",67025,Delaware,"$99,262.38 ",IT_Specialist
Giacomo Shaffer,1-668-879-8143,donec@travelers.com,Ap #987-852 Ultrices. Av.,15365,Washington,"$61,314.53 ",Customer_Service_Representative
Martha Hawkins,(748) 289-6642,elit.a@travelers.com,545-1895 In St.,79411,Georgia,"$77,957.50 ",Customer_Service_Representative
Ima Garner,1-736-553-1739,at@travelers.uk,"691-923 At, St.",62294,Connecticut,"$89,013.30 ",Customer_Service_Representative
Lucas Merrill,1-432-868-3267,a@travelers.com,Ap #711-6793 Nisi. Avenue,41221,Alabama,"$91,958.13 ",Training_and_Development_Manager
Duncan Talley,(533) 570-8854,neque@travelers.uk,335-8217 Hymenaeos. Rd.,84193,Pennsylvania,"$81,572.25 ",Compliance_Officer
Reed Burton,1-383-568-2649,nec.ligula.consectetuer@travelers.uk,254-7669 Curabitur Road,11560,Kentucky,"$60,780.67 ",Loss_Control_Specialist
Beau Holloway,1-845-408-3522,quisque.varius.nam@travelers.uk,Ap #417-2043 Proin Ave,87157,Hawaii,"$61,911.21 ",Risk_Manager
Elijah Henson,1-613-257-4160,donec.at.arcu@travelers.com,695 Velit Avenue,85377,Kentucky,"$60,980.63 ",Compliance_Officer
Hedy Manning,(307) 948-8660,consequat.dolor@travelers.com,Ap #199-1087 Nec Avenue,37200,Mississippi,"$76,827.81 ",Claims_Examiner
Emmanuel Mcintosh,1-271-792-5137,faucibus@travelers.com,308-2110 Enim. Avenue,26386,Indiana,"$59,568.95 ",Actuary
Cedric Peck,1-764-419-1662,justo.nec@travelers.com,Ap #922-4427 Phasellus Ave,82105,Missouri,"$60,901.70 ",Compliance_Officer
Myra Hudson,(356) 762-5131,nunc.lectus@travelers.com,5364 Netus Rd.,86590,Oklahoma,"$89,452.47 ",Legal_Counsel
Castor Miller,1-381-419-8021,fusce.fermentum.fermentum@travelers.com,665-9153 Vestibulum Road,43486,Hawaii,"$61,115.40 ",Operations_Manager
Amena Albert,1-129-998-4692,orci.luctus@travelers.uk,Ap #278-335 Volutpat. Road,74282,Oregon,"$68,753.03 ",Sales_Manager
Troy Fields,1-286-248-0324,libero.proin@travelers.com,"P.O. Box 354, 4862 In Ave",75735,Indiana,"$97,278.14 ",IT_Specialist
Travis Cohen,(288) 218-4042,lorem.auctor.quis@travelers.com,Ap #694-9718 Leo. Av.,56727,Missouri,"$92,822.71 ",Product_Manager
Selma Caldwell,1-524-798-5498,adipiscing.elit@travelers.uk,699-396 Nibh Road,94818,Utah,"$75,203.91 ",Risk_Manager
Latifah Bennett,1-430-847-5428,aenean.massa@travelers.com,"Ap #445-993 At, Av.",29337,Montana,"$62,791.34 ",Marketing_Specialist
India Kirby,(243) 731-6765,cras.vehicula.aliquet@travelers.uk,201-2592 Praesent Ave,44221,Arkansas,"$93,140.37 ",Claims_Adjuster
Kai Joyce,(222) 610-8222,faucibus@travelers.com,Ap #260-2414 Tellus. St.,21604,Hawaii,"$73,929.26 ",HR_Specialist
Francesca Cochran,1-822-781-5985,ipsum.donec@travelers.com,Ap #482-8786 Risus. Road,99861,California,"$79,229.32 ",Customer_Service_Representative
Keely Guthrie,1-560-807-1242,tristique.pharetra@travelers.com,Ap #328-1456 Odio. Ave,34315,Oregon,"$63,784.85 ",Risk_Manager
Axel Townsend,1-272-953-4322,id.blandit@travelers.uk,"P.O. Box 696, 305 Adipiscing Ave",82761,Oklahoma,"$81,441.99 ",Data_Analyst
Lydia Fulton,(323) 735-2571,ipsum@travelers.com,912-3038 Congue. Ave,50378,Arkansas,"$56,869.51 ",IT_Specialist
Inga Vaughan,1-603-720-4633,dictum.ultricies.ligula@travelers.com,"Ap #640-7515 Tempor, Rd.",86357,Massachusetts,"$86,898.67 ",Actuary
Kennedy Allison,1-466-861-1378,mauris.magna@travelers.com,559-309 Sem. Road,30658,Massachusetts,"$73,921.81 ",HR_Specialist
Benedict Berger,1-547-552-8651,sociis.natoque@travelers.uk,5943 Pede Road,43175,Iowa,"$76,245.09 ",Claims_Adjuster
Nathan Campbell,1-892-422-5561,scelerisque@travelers.com,635-8475 Pede St.,86462,Texas,"$48,751.06 ",Financial_Analyst
Oleg Banks,1-785-481-6604,netus@travelers.uk,Ap #595-7910 Pellentesque St.,21224,Indiana,"$82,530.13 ",Training_and_Development_Manager
Ishmael Hodges,1-158-793-2436,in.aliquet.lobortis@travelers.uk,859-7905 Dui Rd.,89860,Louisiana,"$43,327.90 ",Marketing_Specialist
Brent Arnold,(852) 244-6360,viverra.donec@travelers.com,"564-7825 Non, Avenue",83524,Kentucky,"$73,967.08 ",Sales_Manager
Sybil Gallegos,(454) 807-4242,eleifend.non@travelers.uk,703-6147 Vitae Avenue,85442,Indiana,"$52,755.09 ",Risk_Manager
Joy Lewis,1-961-464-5781,nam.nulla@travelers.uk,Ap #386-925 Tempus St.,35644,Wisconsin,"$83,628.35 ",Data_Analyst
Carl Mcneil,(222) 350-1111,amet.ante@travelers.uk,"P.O. Box 301, 801 Dictum Street",84117,Nebraska,"$55,333.83 ",Marketing_Specialist
Audra Copeland,(729) 285-1172,pede.praesent@travelers.uk,"Ap #703-1971 Pede, Avenue",41231,Hawaii,"$61,951.26 ",Data_Analyst
Armando Moran,1-783-834-4386,nullam.suscipit@travelers.uk,Ap #767-9617 Duis Street,74287,Idaho,"$49,321.43 ",Legal_Counsel
Celeste Good,1-417-107-8279,a.feugiat@travelers.com,"P.O. Box 970, 8186 Gravida Rd.",69494,Arkansas,"$69,704.83 ",Financial_Analyst
Sopoline Pruitt,1-178-572-8721,cursus@travelers.uk,Ap #425-8174 Libero Ave,93160,Minnesota,"$94,613.20 ",Compliance_Officer
Theodore Short,(394) 948-3271,nulla.aliquet@travelers.uk,3549 Mi. Av.,33585,Louisiana,"$67,001.59 ",Product_Manager
Yasir Myers,1-817-878-7348,ligula.nullam@travelers.com,255-6106 Nunc St.,97757,Nevada,"$85,762.04 ",Insurance_Agent/Broker
Demetrius Wilcox,(422) 714-6505,urna.suscipit@travelers.uk,Ap #126-6501 Sed Avenue,75226,Kansas,"$61,516.90 ",Loss_Control_Specialist
Kermit Heath,1-678-924-0440,varius.orci@travelers.com,593-2114 Augue Av.,74036,Indiana,"$73,700.24 ",Marketing_Specialist
Cherokee Calhoun,(247) 811-2782,risus.quis@travelers.com,Ap #506-564 Sed Road,87804,Connecticut,"$42,797.02 ",Financial_Analyst
Kelsie Graves,1-818-388-1791,tempor@travelers.com,"P.O. Box 233, 620 Blandit Rd.",65632,Georgia,"$52,086.61 ",Customer_Service_Representative
Chantale Vargas,(235) 316-5884,auctor@travelers.uk,4037 Nisl Ave,45868,Hawaii,"$97,588.44 ",Insurance_Agent/Broker
Maile Sawyer,(836) 569-0225,urna.nullam.lobortis@travelers.uk,Ap #699-7432 Quisque Street,78693,Idaho,"$58,581.18 ",Compliance_Officer
Xena Morton,1-682-295-8791,maecenas.ornare.egestas@travelers.uk,465-1069 Nunc. Rd.,27612,Missouri,"$86,604.34 ",Data_Analyst
Kelsie Cantu,(526) 418-1735,vitae@travelers.com,"P.O. Box 535, 2283 Et Av.",74268,Indiana,"$94,794.56 ",Operations_Manager
Kamal Miller,(533) 221-8820,vel.convallis@travelers.com,"P.O. Box 222, 7110 Vivamus Road",74535,Idaho,"$71,522.93 ",Compliance_Officer
Valentine Cobb,(940) 727-9562,et.ipsum@travelers.com,1512 Fermentum St.,22315,Vermont,"$58,468.51 ",Marketing_Specialist
Alisa Miles,(349) 526-7604,dictum.eleifend@travelers.uk,"Ap #561-1709 Odio, Rd.",71624,Oregon,"$62,718.13 ",Claims_Examiner
Slade Tillman,(224) 436-8102,ipsum.non.arcu@travelers.com,821-3350 Neque Rd.,55537,Maine,"$89,341.09 ",Claims_Adjuster
Patience Hawkins,(255) 747-8420,eu.ultrices@travelers.uk,9641 Neque St.,99853,Alaska,"$58,012.85 ",Product_Manager
Melyssa Dickson,(395) 841-8318,cubilia.curae@travelers.uk,"P.O. Box 846, 7576 Eu, Ave",98572,Illinois,"$70,238.09 ",Risk_Manager
Chantale Mcguire,(338) 679-2133,sed.orci.lobortis@travelers.com,3394 Vitae Avenue,66575,Alaska,"$96,733.44 ",Customer_Service_Representative
Liberty Jimenez,(873) 314-9716,proin.mi@travelers.uk,Ap #410-4193 Lacinia. Rd.,96151,Hawaii,"$80,653.69 ",Data_Analyst
Tana Rocha,1-236-241-7172,mus@travelers.uk,Ap #724-1623 Pede. Avenue,40750,Maryland,"$47,415.64 ",Data_Analyst
Tatum Barker,1-657-792-1596,risus@travelers.uk,404-2394 Auctor Road,13741,Texas,"$96,047.67 ",Loss_Control_Specialist
Zeus Randolph,(164) 439-9635,sed.dictum.proin@travelers.com,Ap #235-3699 Magna. Road,71783,Kansas,"$66,886.30 ",Insurance_Agent/Broker
Lucius Walters,(632) 702-2156,blandit.at@travelers.com,Ap #978-4232 Risus. St.,12682,Hawaii,"$57,220.42 ",Insurance_Agent/Broker
Galvin Rocha,(558) 933-6245,ornare.fusce.mollis@travelers.com,812-7303 Quis Av.,53760,Vermont,"$72,366.68 ",Loss_Control_Specialist
Kylie Barnes,1-162-823-1260,aliquam.adipiscing@travelers.com,1991 Interdum Rd.,66483,Ohio,"$68,039.15 ",Training_and_Development_Manager
Anne Hendricks,1-887-615-1689,consectetuer.ipsum@travelers.uk,Ap #355-1101 Metus. Street,63377,Indiana,"$74,138.51 ",Operations_Manager
Jena Valentine,1-781-908-6531,vitae.semper@travelers.uk,348-9212 Amet St.,43504,Kentucky,"$82,711.39 ",Customer_Service_Representative
Vanna Decker,(437) 196-8298,ut.semper.pretium@travelers.uk,517-1619 Pede Av.,54519,Nebraska,"$81,242.09 ",Legal_Counsel
Valentine Schmidt,(389) 584-8585,accumsan@travelers.uk,Ap #219-9435 Consequat Rd.,30416,Virginia,"$45,056.03 ",Risk_Manager
Caleb Watts,(742) 481-5718,in.lorem@travelers.uk,5956 Dolor Rd.,36126,Arizona,"$67,529.96 ",Data_Analyst
Griffin Whitfield,(423) 787-9317,sodales.nisi@travelers.uk,"P.O. Box 397, 2179 Dignissim St.",36622,Idaho,"$72,812.79 ",IT_Specialist
Stephanie Vargas,(684) 313-8556,porttitor.tellus.non@travelers.uk,4862 Nam Ave,67330,Alaska,"$79,799.78 ",Loss_Control_Specialist
Charissa Barlow,1-601-331-8883,tellus.non@travelers.uk,Ap #876-3759 Ac St.,76247,Kansas,"$46,129.25 ",Claims_Examiner
Prescott Nichols,(365) 469-5647,vestibulum.neque.sed@travelers.com,"297-8521 Vulputate, Rd.",37640,Connecticut,"$93,316.43 ",Underwriter
Jin Gay,(637) 725-1802,dictum.eu@travelers.com,735-3810 Eros St.,15663,Minnesota,"$94,481.57 ",IT_Specialist
Regina Maynard,(598) 249-8918,lorem.ipsum@travelers.uk,Ap #275-6170 Eget Avenue,87129,Nevada,"$66,747.37 ",Claims_Examiner
Sean Langley,1-514-247-6517,et.magna@travelers.uk,894-7495 Velit. Rd.,14518,Wisconsin,"$99,116.99 ",Claims_Adjuster
Sacha Herrera,1-131-453-1305,enim.mauris@travelers.uk,711-672 Dui St.,73506,Illinois,"$41,460.93 ",Customer_Service_Representative
Francesca Small,1-348-814-2098,sem.consequat.nec@travelers.com,Ap #479-7315 Pretium Rd.,67476,Delaware,"$56,833.61 ",Claims_Adjuster
Hunter Bridges,1-860-772-8817,pede.cum.sociis@travelers.com,"P.O. Box 633, 1135 Elit. St.",71323,Connecticut,"$62,096.47 ",Customer_Service_Representative
Rooney Lang,(593) 577-9529,egestas.a@travelers.uk,609-3223 Vel Ave,46751,Hawaii,"$87,076.61 ",Claims_Examiner
Anastasia Swanson,1-377-661-6573,gravida.sagittis@travelers.uk,Ap #919-1909 Integer Rd.,26507,Arkansas,"$57,210.59 ",Compliance_Officer
Joseph Hoover,(356) 671-4417,in.sodales@travelers.com,"P.O. Box 462, 1810 Placerat, Rd.",29927,Kentucky,"$92,108.86 ",Loss_Control_Specialist
Isabelle Lawrence,1-595-372-1358,cum.sociis@travelers.uk,192-827 Mollis Ave,70089,Colorado,"$71,701.55 ",Legal_Counsel
Tashya Andrews,1-226-703-5464,turpis.non@travelers.uk,728-8893 Erat Rd.,76209,Utah,"$90,820.60 ",HR_Specialist
Axel Schroeder,(719) 824-8238,nostra.per@travelers.com,7805 Ornare. St.,55881,Arkansas,"$54,466.00 ",Loss_Control_Specialist
Farrah Zimmerman,(675) 362-4766,eros@travelers.uk,9153 Volutpat. Av.,84687,Maine,"$44,195.03 ",Risk_Manager
Jada Glenn,1-557-832-7393,ac.orci.ut@travelers.uk,440-6436 Egestas. St.,96684,Indiana,"$81,343.96 ",Data_Analyst
Cassady Barton,(335) 729-7631,consequat.dolor@travelers.com,129-7528 Sed Road,64760,Nebraska,"$80,147.91 ",Legal_Counsel
Gary Sosa,1-251-813-9723,facilisis.non.bibendum@travelers.uk,461-4615 Lorem St.,44653,Missouri,"$45,606.53 ",Financial_Analyst
Deanna Bryan,(203) 415-1228,phasellus@travelers.com,737-8002 Nunc Av.,94919,Delaware,"$54,174.77 ",Data_Analyst
Lucian Guerra,1-226-838-6184,sodales@travelers.com,"P.O. Box 878, 2670 Erat. Rd.",71974,California,"$97,113.14 ",Financial_Analyst
Emerson Maldonado,(180) 346-3571,nec.cursus@travelers.uk,642-7124 Nisi. St.,92413,Michigan,"$91,996.24 ",Risk_Manager
Keegan Donovan,(735) 380-3485,donec.tempor.est@travelers.uk,135-6126 Libero. Rd.,99711,Missouri,"$85,393.92 ",Claims_Adjuster
Brian Norton,(668) 247-9512,ultricies@travelers.uk,Ap #791-4101 Blandit Av.,60133,Washington,"$95,820.64 ",Operations_Manager
Ira Gordon,1-955-744-4956,in.consectetuer@travelers.uk,"9938 Lorem, Avenue",18106,Colorado,"$70,181.64 ",Data_Analyst
Brian Ferguson,1-383-405-4435,dolor.fusce@travelers.com,Ap #231-4340 Mollis. Street,26808,Nevada,"$46,080.82 ",Sales_Manager
Brenden Townsend,(379) 316-5825,dis@travelers.uk,"663-3314 Sed, Rd.",44985,Massachusetts,"$77,828.81 ",Sales_Manager
Kyla Mccall,1-585-202-3591,nec@travelers.com,"394-5067 Amet, Rd.",96661,Maryland,"$58,596.53 ",Product_Manager
Merrill Bartlett,1-595-823-8545,ridiculus.mus@travelers.uk,Ap #158-9370 Faucibus Road,74238,Illinois,"$55,519.55 ",Underwriter
Keely Sheppard,(398) 320-7151,consectetuer.adipiscing.elit@travelers.uk,292-7576 Et St.,31539,Alaska,"$63,283.05 ",IT_Specialist
Moses Mays,1-298-242-1585,at.lacus@travelers.uk,532-527 Egestas Av.,21882,Hawaii,"$96,510.67 ",IT_Specialist
Phillip Miller,(667) 664-7074,erat.volutpat@travelers.com,796-5744 Neque Av.,22689,Hawaii,"$90,688.11 ",Legal_Counsel
Marsden Shepherd,1-656-554-7514,tristique@travelers.com,356-2779 Elementum Av.,88479,Connecticut,"$43,463.11 ",IT_Specialist
Griffin Hall,(131) 773-2364,eleifend@travelers.com,Ap #482-4969 Vehicula Av.,12568,Colorado,"$45,273.24 ",Actuary
Nigel Schultz,1-441-852-7865,non.lacinia@travelers.uk,"469-6993 Lobortis, Street",25884,Massachusetts,"$75,465.55 ",Loss_Control_Specialist
Isaiah Burris,1-487-336-3175,integer.tincidunt.aliquam@travelers.uk,"P.O. Box 602, 3740 Mus. Av.",49736,Alaska,"$53,134.80 ",Underwriter
Daryl Mcleod,(715) 265-6471,adipiscing@travelers.uk,2616 Libero. Street,69531,Missouri,"$50,555.58 ",Financial_Analyst
Kirk Lowe,1-223-241-5144,dolor.sit@travelers.com,271 Auctor Rd.,56804,Idaho,"$79,113.08 ",Marketing_Specialist
Rhonda Hodge,1-356-918-3244,nec.leo@travelers.uk,988-8354 Luctus Ave,77952,Alaska,"$97,258.95 ",HR_Specialist
Vaughan Bailey,(310) 665-6217,nisl.elementum@travelers.com,"9318 Et, Street",84127,Illinois,"$76,524.44 ",Training_and_Development_Manager
Natalie Hendricks,1-743-867-3876,aliquet.libero@travelers.com,Ap #273-5336 Ullamcorper Rd.,85488,Wyoming,"$99,723.22 ",Sales_Manager
India Richmond,1-285-471-8389,dictum.sapien@travelers.uk,Ap #425-6825 Turpis. Road,24655,Mississippi,"$80,785.18 ",IT_Specialist
Jonah Cooper,(861) 325-2443,nisi@travelers.com,1111 Dolor St.,99681,Tennessee,"$72,451.88 ",Marketing_Specialist
Jana Dominguez,(833) 679-8413,ac.tellus.suspendisse@travelers.com,Ap #487-8820 Dis Av.,57484,Massachusetts,"$67,721.31 ",Customer_Service_Representative
Malachi Velazquez,1-488-834-5749,elit.pellentesque@travelers.com,"4863 Non, St.",62508,Indiana,"$63,202.42 ",Customer_Service_Representative
Thor Farrell,1-931-652-6844,nisi.a.odio@travelers.com,"P.O. Box 357, 1092 Id, Avenue",81311,Hawaii,"$50,293.80 ",HR_Specialist
Gavin Valdez,1-623-118-1128,sapien@travelers.com,"P.O. Box 438, 689 Magna Av.",99746,Arkansas,"$99,873.58 ",Claims_Examiner
Ulric Stokes,(261) 128-6166,nullam.suscipit@travelers.com,Ap #255-732 Nisi Rd.,72278,Missouri,"$71,551.46 ",Loss_Control_Specialist
Brody Pickett,(664) 610-7534,ornare.egestas.ligula@travelers.uk,Ap #291-6522 Semper. Rd.,86235,Indiana,"$87,618.01 ",HR_Specialist
Gay Hopper,(618) 272-7463,aliquam.nec@travelers.com,282-8517 Arcu St.,93166,Arizona,"$79,694.66 ",Compliance_Officer
Phillip Sheppard,(252) 458-7746,consectetuer.adipiscing.elit@travelers.com,687-7226 Quisque Rd.,80633,Texas,"$87,633.98 ",Training_and_Development_Manager
Gillian Mendez,1-966-384-8541,phasellus.vitae.mauris@travelers.com,"368-6612 Sed, Av.",38727,Kentucky,"$65,121.31 ",Insurance_Agent/Broker
Ariel Dominguez,1-386-744-3730,montes.nascetur@travelers.uk,6634 Velit St.,36724,Mississippi,"$42,111.92 ",Legal_Counsel
Helen Boyle,(674) 583-9327,auctor.ullamcorper@travelers.uk,9842 Quisque Road,81313,Maryland,"$55,575.19 ",Insurance_Agent/Broker
Sierra Shaw,1-115-251-0734,sapien.aenean@travelers.com,105-4868 Mattis Rd.,99888,Virginia,"$60,266.32 ",IT_Specialist
Honorato Park,(777) 498-5776,tellus.suspendisse.sed@travelers.uk,"P.O. Box 405, 8788 Sit Street",42220,Mississippi,"$50,789.36 ",Marketing_Specialist
Jade Horn,(771) 335-3045,blandit.viverra@travelers.com,907-3166 Mollis St.,62161,Kentucky,"$58,571.58 ",Underwriter
Cailin Schultz,1-483-388-4873,metus@travelers.uk,494-7722 Orci Street,51155,Iowa,"$92,568.53 ",Sales_Manager
Kessie Alston,(146) 647-9701,integer.tincidunt.aliquam@travelers.uk,613-3614 Scelerisque Road,92060,Arizona,"$91,847.03 ",IT_Specialist
Summer Kelly,(271) 887-7275,nibh.aliquam@travelers.com,Ap #910-4680 Rhoncus. Street,10071,Iowa,"$99,746.90 ",Operations_Manager
Colton Thornton,1-577-690-5926,rhoncus.nullam.velit@travelers.uk,Ap #928-4662 Curabitur Street,28105,Missouri,"$40,918.51 ",Insurance_Agent/Broker
Eric Oneil,(252) 272-1358,orci.adipiscing@travelers.uk,Ap #412-1162 Nunc Av.,21578,Idaho,"$80,997.91 ",Customer_Service_Representative
Axel Lambert,(391) 477-6945,neque@travelers.uk,"224-4843 Lorem, Road",84567,Vermont,"$64,456.98 ",HR_Specialist
Josiah Rivas,1-986-824-7528,semper.et@travelers.uk,"P.O. Box 899, 6794 Magnis Rd.",83327,Pennsylvania,"$47,424.87 ",Claims_Examiner
Joshua Myers,1-759-712-2258,vitae.sodales@travelers.uk,Ap #599-3768 Enim Ave,85373,Hawaii,"$81,722.73 ",Data_Analyst
Macon Battle,1-377-852-3448,iaculis.quis@travelers.com,Ap #362-3342 Sit Av.,71475,Mississippi,"$70,399.29 ",Underwriter
Channing Nunez,1-298-546-0154,eu.dui.cum@travelers.uk,574-1495 Ante Rd.,43392,Alaska,"$80,693.43 ",Data_Analyst
Harrison Farmer,1-871-719-5348,at@travelers.uk,Ap #219-8240 Nam Av.,37128,Mississippi,"$86,012.43 ",Customer_Service_Representative
Kelly Goodman,1-875-266-4261,nisi@travelers.uk,979-3617 Faucibus Ave,57472,Missouri,"$50,665.25 ",Customer_Service_Representative
Cyrus Chang,(825) 608-2626,nibh.dolor.nonummy@travelers.com,"P.O. Box 694, 7040 Justo. Ave",27714,Alaska,"$76,061.69 ",Claims_Examiner
Lucy Howell,1-522-533-9547,velit@travelers.uk,147-4012 Rhoncus. St.,59826,Montana,"$57,169.08 ",Marketing_Specialist
Brett Mckee,1-534-136-3415,nec.quam.curabitur@travelers.com,"4513 Rutrum, Rd.",84758,Indiana,"$53,648.99 ",Claims_Adjuster
Remedios Nixon,(719) 753-8345,pharetra.sed.hendrerit@travelers.com,260-5343 Nunc Rd.,63845,Colorado,"$70,315.38 ",Compliance_Officer
Melvin Middleton,1-755-163-1852,blandit.congue@travelers.uk,Ap #524-7443 Lacinia Rd.,87366,Colorado,"$79,112.23 ",Insurance_Agent/Broker
Kirestin Horn,(660) 314-9058,nec.cursus@travelers.uk,"P.O. Box 531, 6030 Erat St.",74748,Nevada,"$94,225.56 ",Claims_Adjuster
Emma Wolf,1-760-262-3386,magna.phasellus.dolor@travelers.com,540-7119 Elit. Avenue,35864,Texas,"$62,027.90 ",Risk_Manager
Clare Mcclure,(389) 864-2319,mi@travelers.uk,"P.O. Box 733, 9559 Dui St.",44124,Oklahoma,"$70,412.77 ",Risk_Manager
Herman Edwards,1-752-510-6634,dolor@travelers.com,Ap #776-1603 Ultrices St.,72128,Alabama,"$65,909.74 ",Risk_Manager
Noble Spence,(876) 444-8850,mollis.phasellus.libero@travelers.uk,200-4306 Libero. Avenue,27526,Kentucky,"$84,803.70 ",Loss_Control_Specialist
Paula Harrell,1-186-751-4173,in.hendrerit.consectetuer@travelers.com,Ap #433-7992 Cursus Ave,68525,Utah,"$60,997.08 ",Product_Manager
Camille Gamble,1-671-421-7553,lorem.ac.risus@travelers.uk,Ap #415-8789 Blandit St.,16183,Minnesota,"$91,672.93 ",HR_Specialist
Lacey Holloway,1-716-568-8841,bibendum.fermentum.metus@travelers.com,"Ap #203-6553 Quis, St.",79875,Maryland,"$80,325.72 ",Insurance_Agent/Broker
Portia George,1-784-432-5178,duis.dignissim@travelers.uk,157-5282 Nibh St.,77682,Georgia,"$41,797.07 ",Claims_Adjuster
Ursa Crane,1-138-710-4656,sit@travelers.com,7264 Elementum Avenue,24864,Kansas,"$81,440.70 ",Legal_Counsel
Rhiannon Dean,1-513-841-3415,ridiculus@travelers.com,189-4717 Sem Road,68813,Delaware,"$97,367.56 ",Insurance_Agent/Broker
Dara Martinez,(558) 227-3694,molestie.tellus.aenean@travelers.com,Ap #988-7784 Tincidunt. St.,43051,Idaho,"$78,894.05 ",Data_Analyst
Aretha Wilkinson,(174) 627-1266,velit.justo.nec@travelers.uk,937-8300 Neque. St.,54246,Kansas,"$80,582.65 ",Claims_Examiner
Idola Conway,(527) 924-8653,rhoncus@travelers.uk,"Ap #732-9890 Elit, St.",11544,Delaware,"$63,340.18 ",Marketing_Specialist
Yasir Dickerson,1-524-701-0575,cursus.et@travelers.uk,581-3884 Odio. Av.,61828,Maryland,"$72,879.96 ",HR_Specialist
Driscoll Madden,1-863-820-5312,et.magnis@travelers.uk,"P.O. Box 215, 8700 Lacinia St.",16727,Mississippi,"$43,286.21 ",Data_Analyst
Heather Case,1-335-733-4534,vestibulum.lorem@travelers.com,575-9338 Amet Road,44815,Connecticut,"$61,092.76 ",Customer_Service_Representative
Scarlet Quinn,1-675-843-3274,ut.ipsum.ac@travelers.uk,5717 Blandit. St.,54865,California,"$47,176.35 ",Risk_Manager
Cameron Abbott,(775) 732-2695,vitae.semper.egestas@travelers.uk,840-7779 Eleifend St.,57499,Missouri,"$67,121.13 ",Product_Manager
Dora Myers,(151) 878-6251,ac.turpis@travelers.com,"Ap #207-5027 Felis, Rd.",99578,Iowa,"$65,107.85 ",Underwriter
Abraham Pugh,1-394-264-8181,non.dui.nec@travelers.com,"P.O. Box 278, 654 Accumsan Av.",56511,Delaware,"$71,168.38 ",Financial_Analyst
Justina Valdez,(835) 415-0747,egestas@travelers.com,"P.O. Box 147, 2333 Ac Avenue",72064,Minnesota,"$55,380.51 ",Insurance_Agent/Broker
Rafael Talley,(668) 237-5423,ullamcorper.viverra.maecenas@travelers.uk,Ap #968-2974 Venenatis Road,32658,Mississippi,"$80,218.28 ",Claims_Adjuster
Desiree Blanchard,1-716-224-8537,duis@travelers.com,Ap #558-3504 Quis St.,56351,Wisconsin,"$56,007.19 ",Underwriter
Larissa Bradley,1-418-889-3255,phasellus.ornare@travelers.uk,Ap #461-4450 Cras Av.,86781,Arkansas,"$42,120.99 ",Legal_Counsel
Angela Combs,(495) 515-1358,quam.quis@travelers.uk,797-5395 Nisl. Rd.,87483,Missouri,"$92,707.00 ",Training_and_Development_Manager
Raya Vance,1-364-736-4621,lorem.sit@travelers.uk,Ap #745-3774 Eget Rd.,68418,Nevada,"$73,016.01 ",HR_Specialist
Ramona Padilla,(446) 276-0563,mauris.sagittis@travelers.uk,289-6753 Laoreet Avenue,63430,Pennsylvania,"$71,631.49 ",Legal_Counsel
Minerva Prince,1-618-506-6863,et.magnis.dis@travelers.uk,Ap #569-7932 Egestas. Rd.,51236,Oklahoma,"$89,994.60 ",Customer_Service_Representative
Denton Moody,(193) 458-3419,magna.tellus@travelers.com,"P.O. Box 147, 2151 Aliquet. Rd.",61664,Idaho,"$77,913.14 ",Compliance_Officer
Shoshana Bailey,(273) 621-6330,neque.vitae@travelers.uk,"Ap #428-5416 Placerat, Ave",59915,Connecticut,"$82,353.76 ",Risk_Manager
Adara Fernandez,1-476-258-6878,egestas.fusce.aliquet@travelers.com,728-1741 Fermentum St.,26138,Texas,"$69,937.36 ",Actuary
Willow Becker,1-354-753-1164,nisl@travelers.uk,Ap #934-6735 Lectus Av.,85507,Kentucky,"$54,370.94 ",Sales_Manager
Winifred Hebert,1-219-776-5559,accumsan.interdum@travelers.uk,Ap #838-877 Rhoncus. Rd.,64068,Idaho,"$84,212.15 ",Claims_Examiner
Nash Morton,1-952-476-4734,est.vitae@travelers.com,163-855 Eleifend. St.,38035,Kansas,"$64,736.17 ",Customer_Service_Representative
Calista Wilkins,1-764-147-6722,integer@travelers.com,"P.O. Box 259, 8317 Cras Road",44758,Kansas,"$47,396.83 ",Data_Analyst
Veda Shaw,(525) 716-1719,luctus.sit@travelers.com,"P.O. Box 464, 7057 Lectus Avenue",99829,Montana,"$76,309.85 ",Marketing_Specialist
Lucian Duffy,1-732-376-5460,aenean.eget.magna@travelers.uk,184-8224 Non Rd.,82242,Colorado,"$47,508.00 ",Customer_Service_Representative
Vance Slater,(653) 366-5891,vitae.erat@travelers.com,725-6402 Amet St.,48818,Missouri,"$92,333.63 ",Legal_Counsel
Quon Mccray,1-527-911-7370,iaculis.nec@travelers.uk,3223 Ante Ave,56631,Wyoming,"$68,721.53 ",Sales_Manager
Indira Hansen,(741) 655-5237,amet.consectetuer@travelers.uk,Ap #968-1101 Aliquam St.,92444,Missouri,"$71,305.84 ",Compliance_Officer
Cara Hansen,1-635-766-6199,velit.quisque@travelers.uk,128-9779 Ornare Avenue,75485,Oregon,"$81,831.37 ",IT_Specialist
Lucy Hood,1-776-988-4684,sem.elit@travelers.uk,"332-6855 Amet, Rd.",28827,Wyoming,"$94,891.43 ",Customer_Service_Representative
David Larson,1-331-863-3409,nec.urna.et@travelers.com,391-6822 Sed Street,85160,Florida,"$64,177.11 ",IT_Specialist
Carolyn Molina,1-396-513-0865,bibendum.fermentum.metus@travelers.uk,416-3172 Pellentesque Rd.,23678,Texas,"$79,908.24 ",HR_Specialist
Ezra Guzman,(731) 887-4532,urna.nullam.lobortis@travelers.uk,Ap #389-2652 Sapien. Road,22520,Arizona,"$77,503.67 ",Operations_Manager
Cherokee Wood,1-747-788-3833,velit.justo.nec@travelers.com,388-2660 A Av.,71812,Maine,"$85,392.49 ",Risk_Manager
Tyrone Byrd,1-475-976-9103,ipsum.cursus@travelers.uk,"P.O. Box 772, 4633 Duis Ave",28658,Alabama,"$97,636.81 ",Claims_Adjuster
Malcolm Knox,(383) 776-4438,lorem.tristique@travelers.com,983-6161 Velit. Rd.,19354,Nevada,"$82,320.68 ",Customer_Service_Representative
Scott Summers,1-554-264-0889,in.lobortis@travelers.com,435-4574 Mauris Av.,18136,Louisiana,"$47,211.57 ",Claims_Examiner
Reese Logan,1-627-407-6811,enim.mi@travelers.com,"Ap #511-8952 Nec, St.",45176,Florida,"$98,935.99 ",Marketing_Specialist
Alexis Haley,1-260-329-1725,erat.sed@travelers.uk,842 Quam St.,21778,Wisconsin,"$96,722.64 ",Loss_Control_Specialist
Angela Hood,1-241-337-6371,natoque.penatibus@travelers.uk,464-4344 Nibh Rd.,82361,Florida,"$98,955.93 ",Marketing_Specialist
Anjolie Barry,1-633-840-2380,vulputate.lacus@travelers.uk,"P.O. Box 577, 6509 Dapibus Rd.",21344,Louisiana,"$95,019.64 ",Compliance_Officer
Alfreda Russo,1-437-771-6739,duis.sit.amet@travelers.uk,912-1579 Morbi Av.,87735,Delaware,"$79,914.99 ",Marketing_Specialist
Macy Estes,(510) 411-6376,fringilla.donec.feugiat@travelers.com,Ap #459-1513 Nulla Av.,21857,Ohio,"$92,341.83 ",Underwriter
Lysandra Meadows,(200) 718-4328,ante.lectus.convallis@travelers.uk,2757 Dolor St.,70708,Connecticut,"$95,656.47 ",HR_Specialist
Jasmine Long,1-972-429-9637,est.vitae.sodales@travelers.uk,"Ap #542-5322 Augue, Ave",91281,Virginia,"$42,487.54 ",IT_Specialist
Stacy Jacobson,(875) 911-8484,vitae.aliquet.nec@travelers.com,314-4730 Egestas Avenue,24099,Vermont,"$91,869.45 ",Loss_Control_Specialist
Hadley Cardenas,(173) 421-4717,fringilla.donec@travelers.com,Ap #326-7819 Enim Ave,75779,Utah,"$43,183.79 ",Marketing_Specialist
Cooper Mcclain,1-976-844-1886,mauris.molestie@travelers.com,Ap #812-5457 Etiam St.,36646,Ohio,"$55,743.17 ",Customer_Service_Representative
Wang Downs,(850) 430-8306,ut.eros@travelers.com,Ap #263-9305 Rhoncus Street,29427,Indiana,"$65,636.06 ",HR_Specialist
Daquan Harrington,1-142-966-2603,enim@travelers.com,3393 Augue St.,50355,Texas,"$98,600.31 ",Insurance_Agent/Broker
Willa Langley,1-875-220-9245,est@travelers.uk,Ap #651-186 Tortor. Av.,94431,Illinois,"$47,637.15 ",Product_Manager
Alexander Keller,1-568-578-5321,adipiscing.fringilla.porttitor@travelers.uk,Ap #243-9821 Egestas Street,19156,Kentucky,"$41,913.50 ",Financial_Analyst
Eaton Mccall,(931) 535-1745,volutpat.nulla@travelers.com,904-9748 Sollicitudin St.,69687,Indiana,"$78,157.50 ",Claims_Adjuster
Colleen Koch,1-856-886-8892,ultrices.duis.volutpat@travelers.uk,374-8435 Proin Rd.,48211,Maine,"$90,219.00 ",Loss_Control_Specialist
Galvin Jimenez,(772) 910-7041,vivamus.nibh.dolor@travelers.uk,"P.O. Box 586, 334 Tellus, Street",17193,Mississippi,"$77,012.03 ",Marketing_Specialist
Samuel Booker,1-811-714-8666,lectus.convallis@travelers.com,8492 In St.,40302,Pennsylvania,"$57,590.77 ",HR_Specialist
Mariko Donovan,(813) 738-7588,felis.purus.ac@travelers.com,"P.O. Box 134, 7305 Libero Rd.",33452,Connecticut,"$91,797.02 ",IT_Specialist
Neville Miller,1-884-307-3443,dis.parturient@travelers.uk,"P.O. Box 720, 6430 Nisi Road",24647,California,"$86,791.99 ",Customer_Service_Representative
Chaney Mckee,(356) 233-2261,enim@travelers.uk,4504 Euismod Street,58503,Utah,"$96,973.68 ",Compliance_Officer
Noel Lindsey,1-629-641-6843,non.cursus@travelers.uk,8965 Dictum. Rd.,94158,Maryland,"$52,988.88 ",Compliance_Officer
Judith Pena,(351) 672-5632,amet.lorem.semper@travelers.uk,"Ap #892-3830 Amet, St.",84783,Idaho,"$70,734.56 ",Marketing_Specialist
Raymond Mcfadden,1-873-287-7220,lectus.quis@travelers.com,8463 Justo. Rd.,42866,Indiana,"$41,075.21 ",Sales_Manager
Declan Barker,(545) 569-3546,eu.nibh.vulputate@travelers.com,"P.O. Box 493, 1933 Non, Avenue",23223,Illinois,"$55,275.04 ",Financial_Analyst
Oliver Oneal,(726) 489-1945,ipsum.primis@travelers.com,"P.O. Box 161, 9274 Gravida. Avenue",65467,Delaware,"$94,374.44 ",Loss_Control_Specialist
Keegan Snyder,1-306-423-0733,sed.nec@travelers.uk,"Ap #341-8841 Odio, Ave",29626,Mississippi,"$86,047.79 ",Data_Analyst
Craig Kidd,1-394-613-6272,lobortis.quis@travelers.com,Ap #121-6373 In Rd.,58246,Nevada,"$54,914.01 ",Underwriter
Porter Barton,(555) 682-6477,mauris.ipsum@travelers.uk,"7666 Est, Rd.",81636,Kansas,"$60,049.50 ",Financial_Analyst
Camilla Hinton,(147) 691-5557,metus.in.lorem@travelers.com,Ap #961-9475 Eleifend St.,54072,Alabama,"$51,741.99 ",Insurance_Agent/Broker
Griffin Bernard,(831) 897-1997,tincidunt.nibh@travelers.com,"P.O. Box 196, 5654 Ut, Avenue",62536,Alabama,"$92,358.12 ",Underwriter
Deacon Richard,(445) 323-1942,faucibus.ut@travelers.uk,"P.O. Box 965, 6509 Dui Rd.",85124,Utah,"$85,481.72 ",Data_Analyst
Maisie Foley,(884) 420-8644,non.hendrerit.id@travelers.uk,"P.O. Box 254, 2909 Nonummy Street",67837,Hawaii,"$42,185.48 ",Data_Analyst
Lucius Weber,(425) 871-5613,lobortis.class@travelers.uk,"P.O. Box 573, 3473 Donec Road",56319,Pennsylvania,"$61,976.24 ",Claims_Adjuster
Emily Hodges,(336) 295-7616,nonummy.ut@travelers.com,587-1501 Malesuada Avenue,23227,Ohio,"$55,812.17 ",Product_Manager
Cheryl Sellers,1-718-502-8380,convallis.ante@travelers.com,964-2660 Curabitur Av.,82262,Texas,"$69,512.56 ",Insurance_Agent/Broker
Dacey Hunter,(563) 790-6162,sem.pellentesque.ut@travelers.com,171-7425 Egestas St.,47774,Kentucky,"$96,001.67 ",Actuary
Mallory Delgado,1-264-666-6407,rutrum.magna.cras@travelers.com,979-8895 Luctus Avenue,39750,Montana,"$40,612.38 ",Training_and_Development_Manager
Abra Zimmerman,(413) 357-5829,pellentesque@travelers.com,Ap #573-9223 Nibh St.,26034,Maryland,"$67,726.97 ",Sales_Manager
Chancellor Kelley,1-329-562-4324,hendrerit.id.ante@travelers.uk,Ap #280-8798 Laoreet Street,49654,Vermont,"$48,648.21 ",HR_Specialist
Kuame Rosa,(902) 563-3730,magna.sed@travelers.uk,"Ap #449-6554 Est, Av.",85074,Utah,"$76,332.37 ",Risk_Manager
Jayme Vasquez,(561) 461-6394,feugiat.tellus.lorem@travelers.com,176-955 Risus Rd.,72226,Massachusetts,"$82,823.49 ",Financial_Analyst
Bethany Hatfield,(858) 263-5852,sed.sem@travelers.com,"P.O. Box 942, 464 Ipsum Street",71444,Missouri,"$85,519.64 ",Underwriter
Harding Powell,(761) 479-2532,a.malesuada@travelers.com,8281 Ligula. Street,98536,Illinois,"$62,550.23 ",Loss_Control_Specialist
Evan Morton,(418) 383-5446,amet@travelers.uk,Ap #920-6545 Nec Ave,22653,Montana,"$40,764.53 ",Loss_Control_Specialist
Rana Alvarez,(687) 216-1468,non@travelers.com,377-1962 Per Ave,80721,Wisconsin,"$80,042.53 ",Underwriter
Ivan Heath,1-328-968-6852,arcu.et@travelers.com,8589 Lobortis Av.,95555,Pennsylvania,"$44,750.10 ",Operations_Manager
Orla Cox,1-412-791-7227,sem.semper.erat@travelers.uk,"P.O. Box 975, 5232 Egestas. St.",47648,Missouri,"$44,567.45 ",Loss_Control_Specialist
Thomas Durham,1-886-451-1825,auctor.nunc@travelers.uk,594-1843 Fringilla Av.,32650,Minnesota,"$74,303.31 ",Data_Analyst
Summer Day,1-917-395-1383,sed.dolor@travelers.uk,"P.O. Box 283, 6804 In Road",37959,Connecticut,"$75,158.67 ",IT_Specialist
Martena O'Neill,(452) 385-6712,elit.nulla@travelers.uk,"Ap #586-6480 A, St.",22623,Hawaii,"$51,289.85 ",Claims_Adjuster
Freya Harrell,1-364-410-7847,lorem.ipsum@travelers.com,3707 Nullam Ave,75147,Nevada,"$83,726.41 ",Insurance_Agent/Broker
George Nunez,(561) 345-6501,pede@travelers.uk,491-4451 Mauris Av.,40741,Colorado,"$75,595.68 ",Data_Analyst
Naida Mosley,1-635-106-6579,ut.tincidunt@travelers.com,300-2861 Convallis Road,72709,Ohio,"$49,693.74 ",Training_and_Development_Manager
Rama Howell,(733) 124-3161,urna.et@travelers.uk,"Ap #974-6617 Elit, Ave",92326,Virginia,"$76,702.84 ",Data_Analyst
Nash Becker,(272) 321-8254,magna.lorem@travelers.uk,Ap #250-1802 Vivamus Road,57367,Idaho,"$95,353.49 ",Actuary
Minerva Shepherd,(384) 112-5715,et@travelers.com,542-4558 Nibh. Rd.,74844,Virginia,"$93,681.44 ",Training_and_Development_Manager
Mira Miller,(415) 828-4304,turpis.egestas@travelers.com,581-6563 Tellus. Av.,13528,Pennsylvania,"$93,916.99 ",Loss_Control_Specialist
Paul Terry,1-334-549-6237,in@travelers.com,540-851 Pretium Street,65855,Idaho,"$52,911.62 ",Financial_Analyst
Kimberley Cooke,1-714-925-9685,vitae@travelers.uk,406-4353 Lorem Rd.,86165,Washington,"$81,114.50 ",Data_Analyst
Ralph Beard,(619) 339-6470,vitae.purus@travelers.com,Ap #232-1197 Luctus. Avenue,67271,Texas,"$53,456.55 ",Data_Analyst
Fulton Romero,(402) 386-8138,a@travelers.com,Ap #595-3609 Class Rd.,72364,Louisiana,"$53,198.50 ",Compliance_Officer
Aurelia Sanford,(601) 611-7432,vel.mauris@travelers.uk,541 Cursus Road,52085,Idaho,"$98,252.53 ",Sales_Manager
Anjolie Boyer,1-972-296-1288,dolor.dolor@travelers.com,"Ap #518-1903 Ut, Rd.",25087,Arkansas,"$79,488.15 ",Compliance_Officer
Indigo Herrera,1-144-817-8863,ornare@travelers.uk,"Ap #839-9598 Est, Rd.",28254,Minnesota,"$92,694.55 ",Claims_Examiner
Winter Dorsey,(213) 475-6759,natoque.penatibus@travelers.com,650-9849 Maecenas St.,44489,Texas,"$81,169.19 ",IT_Specialist
Kermit Hall,(621) 847-6794,convallis@travelers.uk,"Ap #784-380 Luctus, Road",79531,Montana,"$75,778.52 ",Risk_Manager
Trevor Barker,(235) 484-6830,bibendum.donec@travelers.com,"698-7254 Eu, St.",31946,Hawaii,"$68,986.29 ",Loss_Control_Specialist
Wayne Bird,1-643-152-3606,nec.tempus@travelers.uk,"Ap #952-206 Vel, Road",95207,Massachusetts,"$72,575.25 ",Claims_Adjuster
Nita Rosario,1-363-784-7159,vivamus.rhoncus@travelers.uk,Ap #514-8080 Phasellus Rd.,83258,Utah,"$98,921.11 ",IT_Specialist
Isadora Donaldson,(362) 334-4148,ipsum.dolor.sit@travelers.com,"P.O. Box 848, 5624 Et Avenue",35354,Minnesota,"$89,547.15 ",Training_and_Development_Manager
Nasim Kane,(853) 735-7677,dapibus.id.blandit@travelers.com,"P.O. Box 126, 7820 Molestie Av.",71671,Delaware,"$57,347.84 ",Product_Manager
Leila Fleming,(868) 921-1144,non@travelers.com,4121 Per Avenue,35561,Tennessee,"$87,016.09 ",Legal_Counsel
Maite Conway,(885) 201-5748,lorem.eu.metus@travelers.com,Ap #358-5755 Eu Avenue,71313,Colorado,"$56,060.75 ",IT_Specialist
Iliana Davenport,1-462-936-3741,auctor@travelers.com,530-4154 Fusce St.,67635,Idaho,"$98,188.00 ",Operations_Manager
William Giles,1-333-445-7733,consectetuer@travelers.com,Ap #717-2014 Dictum Av.,70094,Wisconsin,"$83,582.28 ",Underwriter
Whoopi James,(350) 526-1210,sed.id@travelers.uk,Ap #957-1429 Quam St.,26200,Mississippi,"$66,246.50 ",Loss_Control_Specialist
Neville Cardenas,1-344-726-9023,enim.nisl@travelers.uk,Ap #392-9169 Maecenas Rd.,29052,Nevada,"$41,442.53 ",Risk_Manager
Marshall Zamora,(504) 629-8757,dignissim.lacus.aliquam@travelers.uk,Ap #417-4665 Dolor St.,95224,Washington,"$64,230.27 ",Legal_Counsel
Amity Salazar,1-699-696-5855,sed.et@travelers.com,"P.O. Box 860, 5644 Nulla Road",90370,Louisiana,"$63,965.08 ",Data_Analyst
Reed Gallagher,(471) 705-5768,massa.vestibulum@travelers.uk,Ap #946-5926 Aliquet St.,83338,Maryland,"$63,197.53 ",Claims_Adjuster
Drake Guerra,1-313-517-6274,auctor.non.feugiat@travelers.com,Ap #814-344 Orci St.,60797,Ohio,"$89,936.71 ",Financial_Analyst
Jayme Kelley,1-824-871-3527,mi@travelers.com,"P.O. Box 440, 8492 Euismod Av.",53154,Mississippi,"$85,254.60 ",Data_Analyst
Kasimir Jenkins,1-452-426-2322,sed.id@travelers.com,777-2887 Dolor. Street,62056,Georgia,"$59,639.48 ",Compliance_Officer
Noah Love,1-914-683-6175,faucibus.ut@travelers.uk,Ap #617-438 Magnis Ave,99820,Illinois,"$73,000.61 ",Claims_Examiner
Kennedy Jefferson,1-498-567-4003,auctor.nunc.nulla@travelers.uk,"Ap #169-9864 Dolor, Rd.",45554,Idaho,"$64,371.97 ",Product_Manager
Destiny Morin,1-637-512-1651,ut.sagittis@travelers.com,694-7706 Amet St.,34595,Vermont,"$53,441.58 ",Operations_Manager
Peter Stafford,(263) 433-1569,neque@travelers.com,"P.O. Box 433, 3807 Lacus. Rd.",36246,Missouri,"$46,270.99 ",IT_Specialist
Ralph Cobb,1-391-964-5671,nulla.tincidunt.neque@travelers.uk,"Ap #465-5381 Tempor, Road",64730,Utah,"$62,132.63 ",HR_Specialist
David Ortega,(103) 897-5436,ante.dictum@travelers.uk,"P.O. Box 306, 2051 Donec Avenue",71022,Nevada,"$89,269.13 ",Loss_Control_Specialist
Robin Mercer,(736) 576-4723,at@travelers.com,679-2711 Felis Rd.,21583,Minnesota,"$88,179.77 ",Underwriter
Fritz Fulton,(504) 550-3182,etiam.ligula@travelers.uk,546-2708 Faucibus St.,27364,Alabama,"$41,826.93 ",Compliance_Officer
Shaeleigh Webster,(510) 522-3244,eleifend.cras@travelers.com,3681 Lobortis Avenue,36077,Nevada,"$46,909.76 ",Loss_Control_Specialist
Kato Mcintyre,1-807-346-2163,convallis.est.vitae@travelers.com,185-5836 Mauris Road,55422,California,"$57,327.13 ",Actuary
Lev Hess,(481) 426-8268,aliquam.tincidunt@travelers.com,Ap #807-6496 Sociis Street,86741,Nevada,"$95,135.83 ",Compliance_Officer
Colleen Cote,(623) 320-6140,eu.lacus@travelers.com,Ap #315-3875 Dis St.,42865,Hawaii,"$69,802.11 ",Customer_Service_Representative
Hedley Erickson,(794) 783-6766,sem.magna@travelers.com,1397 Quisque Street,57037,Hawaii,"$45,737.37 ",Customer_Service_Representative
Jena Bentley,(570) 276-7661,suspendisse.non@travelers.com,6884 Ultrices Rd.,49574,Washington,"$66,980.44 ",Insurance_Agent/Broker
Joelle Bird,1-744-357-2365,arcu.et@travelers.com,"Ap #583-978 Sed, St.",76227,Illinois,"$41,252.66 ",Claims_Adjuster
Ashton Noble,(524) 864-2571,ipsum@travelers.uk,5079 Convallis St.,61841,Iowa,"$81,045.87 ",HR_Specialist
Kieran Preston,(545) 752-1365,risus.varius@travelers.com,840-8466 Amet Av.,43175,Alaska,"$85,927.37 ",Legal_Counsel
Howard Hawkins,(685) 368-8257,pulvinar.arcu@travelers.com,Ap #629-9388 Commodo Avenue,60677,Maryland,"$98,995.19 ",Operations_Manager
Malik Bryan,(853) 485-5346,at.lacus@travelers.uk,Ap #274-4970 Cursus Ave,61433,Vermont,"$49,657.80 ",Claims_Adjuster
Vernon David,1-517-645-3182,nec.euismod.in@travelers.com,Ap #599-6154 Vestibulum St.,40450,Nebraska,"$98,764.80 ",Claims_Adjuster
Felix Davenport,1-773-385-8283,augue.sed@travelers.com,608-1076 Velit Road,62189,Kentucky,"$77,469.20 ",Sales_Manager
Zenia Dunlap,(561) 434-6737,tellus@travelers.com,703-1185 Tellus St.,15430,Washington,"$92,025.78 ",Customer_Service_Representative
Robert Silva,1-516-912-0189,quisque.fringilla.euismod@travelers.com,1337 Mauris Ave,74544,Arkansas,"$68,205.25 ",Claims_Examiner
Guy Santana,(888) 511-1431,varius@travelers.uk,832-5687 Ligula St.,53422,Delaware,"$83,255.42 ",Data_Analyst
Carly Munoz,(581) 626-2061,neque@travelers.uk,Ap #308-5919 Ac Ave,83534,Hawaii,"$52,118.19 ",Underwriter
Darius Sargent,(656) 237-2698,ac@travelers.com,"103-1639 Posuere, Ave",37651,Iowa,"$87,068.44 ",Data_Analyst
Ruby David,(713) 295-4023,dui@travelers.com,806-3947 Ultricies Ave,45771,Pennsylvania,"$58,819.05 ",Data_Analyst
Courtney Weaver,(554) 468-1694,commodo.ipsum@travelers.com,Ap #612-9882 Enim. St.,28662,Washington,"$83,844.06 ",Risk_Manager
Rhiannon Stanton,(975) 683-3029,at.egestas.a@travelers.com,"P.O. Box 266, 3889 Aliquet Street",99798,Massachusetts,"$76,758.88 ",Training_and_Development_Manager
Mohammad Keith,(422) 541-0747,turpis.vitae@travelers.uk,"Ap #528-2413 Suscipit, Av.",26366,Alabama,"$54,755.50 ",HR_Specialist
Conan Roach,(454) 289-8215,consectetuer.rhoncus@travelers.uk,"P.O. Box 427, 710 Pede Rd.",53681,Oregon,"$65,798.09 ",Legal_Counsel
Denise Gamble,(635) 202-1535,egestas.hendrerit@travelers.uk,358-3859 Nisi Street,71391,Idaho,"$81,380.83 ",Legal_Counsel
Orlando Higgins,(712) 255-3228,faucibus@travelers.uk,Ap #133-4949 Curabitur Av.,72683,Wisconsin,"$46,562.96 ",Compliance_Officer
Jennifer Boone,1-659-692-4586,id.magna@travelers.com,Ap #372-8112 Odio. Ave,60678,Colorado,"$73,905.56 ",Marketing_Specialist
Colleen Valencia,(352) 737-9030,auctor.mauris.vel@travelers.uk,273-4839 Aliquam Road,22086,Georgia,"$86,946.21 ",Operations_Manager
Bertha Hopper,1-320-274-2410,suspendisse@travelers.com,Ap #972-6453 Lectus St.,68087,Oklahoma,"$55,215.10 ",Customer_Service_Representative
Dante Elliott,1-573-881-5416,sem.nulla@travelers.com,Ap #249-2601 Libero Ave,32992,Idaho,"$51,398.63 ",Actuary
Tamekah Schroeder,1-676-799-8920,convallis.dolor@travelers.com,Ap #990-8331 Lacinia Road,24786,Minnesota,"$88,935.15 ",Underwriter
Jordan Camacho,(533) 136-2115,mauris.eu@travelers.uk,460-396 Massa. Ave,74669,Iowa,"$77,336.35 ",Data_Analyst
Victor Wallace,(536) 454-8694,mauris.sagittis@travelers.uk,Ap #297-2949 Vivamus St.,28119,Alabama,"$79,161.74 ",Claims_Examiner
Colin Finch,(927) 930-8445,amet.faucibus@travelers.com,"P.O. Box 378, 156 Faucibus Av.",35145,Nebraska,"$72,729.99 ",Financial_Analyst
Fay Bruce,1-717-736-3545,quisque@travelers.com,1469 Lectus Rd.,64653,Mississippi,"$74,921.81 ",Customer_Service_Representative
Tatum Carroll,1-746-401-7552,euismod.in@travelers.com,8214 Ligula St.,66311,Montana,"$75,999.34 ",HR_Specialist
Brent Walters,(364) 764-1707,integer.eu.lacus@travelers.uk,"275 Vel, Ave",36084,Delaware,"$70,349.03 ",Claims_Adjuster
Amethyst Franklin,1-411-943-6667,magna.ut.tincidunt@travelers.com,5299 Hendrerit St.,21059,Colorado,"$80,513.63 ",Financial_Analyst
Madison Calhoun,(360) 461-1432,a.tortor@travelers.com,964-3437 Eleifend Ave,57148,Minnesota,"$68,136.19 ",Operations_Manager
Mariko Shannon,(277) 677-5729,felis.nulla.tempor@travelers.com,"P.O. Box 574, 1749 Fringilla St.",32775,Connecticut,"$61,386.90 ",Financial_Analyst
Brennan Camacho,1-474-182-7198,eu.nibh@travelers.uk,Ap #378-8062 Aliquet Av.,67770,Arizona,"$54,727.30 ",Actuary
Yardley Stein,1-501-533-9152,ornare.fusce@travelers.com,Ap #554-3751 Ligula St.,31154,Tennessee,"$71,528.86 ",Marketing_Specialist
Zorita Beasley,1-136-204-7678,mauris.sapien@travelers.uk,Ap #534-4583 A St.,54554,Hawaii,"$76,658.64 ",Sales_Manager
Nomlanga Small,1-635-318-9425,fames.ac@travelers.uk,6212 Eget Avenue,26853,Vermont,"$76,499.54 ",Claims_Examiner
Garrett Cobb,(568) 718-4887,amet.ante@travelers.uk,Ap #535-6287 Sociis Street,65622,Nevada,"$83,836.20 ",Legal_Counsel
Gregory Jarvis,1-370-685-2445,volutpat.ornare.facilisis@travelers.com,"P.O. Box 193, 8237 Sed Rd.",17709,Vermont,"$45,683.14 ",IT_Specialist
Buckminster Hansen,(467) 458-1730,orci.ut.sagittis@travelers.com,"504-3645 Non, Road",58829,Vermont,"$63,631.58 ",Underwriter
Dennis Glenn,(765) 547-0254,nec.metus@travelers.com,683-568 A Avenue,52437,Illinois,"$65,022.04 ",Risk_Manager
Maia Rogers,(303) 704-1773,at@travelers.com,"Ap #721-8913 Consequat, Ave",46728,Utah,"$44,020.90 ",Actuary
Jamal Brown,1-234-939-1327,accumsan.neque@travelers.uk,"P.O. Box 179, 5461 Tristique Rd.",36384,Virginia,"$99,578.65 ",Training_and_Development_Manager
Frances Pierce,(248) 847-4651,ut.erat.sed@travelers.com,"P.O. Box 119, 4644 Nisl Rd.",49439,Illinois,"$78,023.87 ",Loss_Control_Specialist
Miranda Hooper,(461) 641-3282,turpis.egestas@travelers.uk,Ap #317-7199 Penatibus Rd.,99737,Alabama,"$76,357.20 ",Claims_Examiner
Chaim Leonard,1-862-511-1645,nam.consequat@travelers.uk,Ap #774-3287 Donec Street,66377,Hawaii,"$62,627.92 ",IT_Specialist
Zachery Dudley,(648) 429-2288,pede.ac@travelers.com,"P.O. Box 882, 9338 Amet St.",29442,Arkansas,"$93,057.80 ",Financial_Analyst
Rahim Olsen,(142) 664-1569,nam.consequat@travelers.com,102-9834 Pellentesque Av.,18334,Alaska,"$99,109.24 ",Customer_Service_Representative
Alec Holmes,(577) 664-7105,sed@travelers.com,Ap #745-9681 Aliquam Rd.,17542,Pennsylvania,"$77,074.06 ",Claims_Examiner
Amos Scott,1-734-551-3945,magna@travelers.uk,"P.O. Box 242, 4193 In Ave",43161,Iowa,"$41,422.85 ",HR_Specialist
Avye Young,(574) 377-3735,lacus.nulla.tincidunt@travelers.uk,"P.O. Box 269, 4061 Rhoncus. St.",68783,Colorado,"$64,905.61 ",Underwriter
Melvin Rosales,(478) 456-1837,ut@travelers.com,"764-7196 Tempus, Avenue",66242,Mississippi,"$88,567.82 ",IT_Specialist
Ian Huber,(828) 365-5621,sed.dictum@travelers.uk,"251-425 Ornare, Ave",40633,Arizona,"$81,985.97 ",Insurance_Agent/Broker
Raymond Lester,(883) 233-0158,nulla.cras.eu@travelers.uk,"P.O. Box 707, 9267 Blandit. Rd.",36861,Arkansas,"$89,087.75 ",Data_Analyst
Xavier Drake,(184) 477-5826,cras.dictum.ultricies@travelers.com,"P.O. Box 322, 5510 Eu Rd.",83158,Colorado,"$60,364.60 ",Sales_Manager
Leilani Phillips,1-467-753-8309,arcu@travelers.uk,190-4092 Orci. St.,56583,Tennessee,"$77,093.39 ",Customer_Service_Representative
Valentine Norris,(745) 926-7456,fusce.fermentum@travelers.com,Ap #590-2843 Sapien Ave,65207,Michigan,"$58,010.30 ",Financial_Analyst
Uriel Nelson,(365) 256-7952,tempor@travelers.uk,386-3674 Mauris Road,60743,Nebraska,"$61,632.78 ",Legal_Counsel
Gail Key,1-744-331-1245,commodo@travelers.uk,869-6921 Neque Rd.,31074,Michigan,"$87,758.19 ",Product_Manager
Dalton Serrano,(318) 701-8410,sagittis.nullam@travelers.uk,Ap #488-7164 Consectetuer Avenue,22354,Idaho,"$79,361.21 ",Loss_Control_Specialist
Chadwick Bowen,1-246-226-7588,consequat@travelers.uk,634-7664 Id Av.,26614,Minnesota,"$62,629.95 ",Financial_Analyst
Indigo Wilder,(654) 322-2136,mattis.cras.eget@travelers.uk,739-5182 Et Avenue,62085,Indiana,"$40,392.18 ",Legal_Counsel
Jolie Santana,(944) 268-7155,ipsum.suspendisse@travelers.uk,"P.O. Box 573, 5902 Nunc Ave",84311,Iowa,"$56,980.70 ",Customer_Service_Representative
Brent Morris,(846) 674-4552,neque.nullam@travelers.uk,"Ap #572-2551 Eleifend, Ave",75539,Oklahoma,"$89,724.48 ",Customer_Service_Representative
Dustin Hyde,1-451-336-6630,dictum.magna.ut@travelers.uk,5723 Tristique Av.,58463,Michigan,"$69,051.64 ",Risk_Manager
Caesar Hinton,(897) 906-3767,dictum.eu@travelers.com,349-2244 Donec Avenue,81675,Maryland,"$58,296.49 ",Customer_Service_Representative
Jessica Ryan,1-989-518-1713,augue.eu@travelers.uk,Ap #425-3713 Lorem Avenue,13434,Ohio,"$98,908.50 ",IT_Specialist
Catherine Bush,1-459-252-7661,luctus.et@travelers.com,561-3173 Ligula Road,90180,Georgia,"$40,134.33 ",Financial_Analyst
Kirby Nunez,1-893-885-8283,sagittis.placerat@travelers.com,Ap #489-5617 Maecenas St.,46348,Ohio,"$80,560.58 ",Underwriter
April Frank,(853) 467-3302,condimentum.donec@travelers.uk,Ap #178-2926 Varius Avenue,32467,Pennsylvania,"$41,614.60 ",Compliance_Officer
Zachery Moore,1-712-138-0201,vitae@travelers.uk,Ap #140-4986 Nec Rd.,11846,Montana,"$78,822.76 ",Operations_Manager
Jemima Larsen,1-228-593-2740,ante@travelers.uk,Ap #297-5351 Nullam Road,15197,Indiana,"$51,021.86 ",Insurance_Agent/Broker
Brandon Gonzalez,(236) 542-5165,lacus@travelers.uk,"225-1292 Est, Street",73683,Indiana,"$43,604.23 ",Financial_Analyst
Jorden Lopez,(491) 449-1562,porttitor@travelers.uk,371-5582 Amet Ave,44866,Wisconsin,"$59,130.76 ",Operations_Manager
Madonna Hopper,(274) 940-4508,dictum.magna.ut@travelers.com,138-4345 Gravida Rd.,43945,Missouri,"$57,520.54 ",Operations_Manager
Beck Bartlett,(478) 787-4817,in.felis.nulla@travelers.uk,Ap #571-8359 Quam Rd.,74333,Virginia,"$53,728.63 ",IT_Specialist
Noble Henry,1-579-238-0317,egestas.ligula@travelers.com,Ap #477-6924 Non Av.,24291,Alabama,"$46,142.13 ",HR_Specialist
September Soto,(132) 230-4827,molestie@travelers.uk,"4985 Vel, Av.",65137,Georgia,"$71,404.10 ",Legal_Counsel
Amal Valdez,1-551-666-1962,proin.dolor@travelers.uk,Ap #823-8629 Nunc Rd.,76733,Maine,"$82,020.53 ",Sales_Manager
Reese Cervantes,(553) 365-7647,elit.sed@travelers.uk,Ap #132-5658 Egestas. Road,17703,Kansas,"$77,245.97 ",HR_Specialist
Abbot Huber,(488) 272-8551,iaculis.quis.pede@travelers.uk,955-7745 Adipiscing Street,35856,Massachusetts,"$57,134.68 ",Actuary
Mariam Vaughan,1-390-645-6830,pharetra@travelers.uk,956-9558 Egestas Rd.,76703,Florida,"$62,573.87 ",Sales_Manager
Elmo Mcmahon,1-581-528-7432,blandit.mattis@travelers.uk,234-5983 Ligula St.,90062,Tennessee,"$71,808.13 ",Risk_Manager
Brett Middleton,1-139-726-1118,eget.tincidunt@travelers.uk,Ap #887-6824 Maecenas Avenue,59294,Arizona,"$47,991.74 ",Insurance_Agent/Broker
Zephr Lindsey,(937) 864-7265,nunc.id@travelers.uk,Ap #484-9499 Cursus Ave,71522,Kentucky,"$41,172.64 ",Risk_Manager
Reagan Cummings,(805) 758-8208,sollicitudin.orci.sem@travelers.uk,448-8160 Sit Avenue,36756,Tennessee,"$80,238.36 ",Marketing_Specialist
Signe Ball,(877) 925-2277,vivamus.nisi@travelers.uk,3227 Donec Road,48371,Kentucky,"$78,538.53 ",Customer_Service_Representative
Karly Jordan,(570) 373-1345,at.velit@travelers.com,560-8569 Sagittis Rd.,45516,Ohio,"$40,924.26 ",Compliance_Officer
Jarrod Head,1-142-576-2668,donec.egestas.aliquam@travelers.com,Ap #830-120 Eleifend Street,35587,Indiana,"$94,555.37 ",Marketing_Specialist
Marcia Rush,1-937-156-8266,euismod.enim.etiam@travelers.com,"P.O. Box 395, 4913 Cursus Road",20412,Kansas,"$67,105.15 ",Risk_Manager
Ariana Gilmore,(925) 921-5256,nulla.aliquet.proin@travelers.com,Ap #923-5855 Tellus St.,26139,Arizona,"$70,222.98 ",IT_Specialist
Rhea Holcomb,1-814-763-4517,convallis.ante@travelers.com,850-1309 Tempus Av.,49816,Iowa,"$59,776.74 ",Insurance_Agent/Broker
Cooper Velasquez,(855) 884-7964,mi.ac.mattis@travelers.uk,Ap #711-1951 Erat Rd.,42536,Maine,"$43,479.89 ",Actuary
Amethyst Morris,(411) 475-1923,non@travelers.uk,Ap #892-4743 Sociis St.,34424,Mississippi,"$65,004.47 ",Legal_Counsel
Chaim Guy,1-592-827-4841,lobortis.augue@travelers.uk,"140-4834 Sed, Street",55143,Florida,"$42,651.43 ",Insurance_Agent/Broker
Chase Buckner,(970) 488-6585,ullamcorper@travelers.com,"Ap #199-458 Dolor, Avenue",92256,Mississippi,"$69,343.16 ",HR_Specialist
Anika Lamb,1-336-701-3434,in@travelers.uk,"P.O. Box 622, 6700 Ipsum Ave",41665,Minnesota,"$62,662.26 ",Sales_Manager
Lane Clarke,1-372-617-4778,dapibus.id.blandit@travelers.uk,5689 Aliquam Rd.,19154,Massachusetts,"$54,491.83 ",Underwriter
Kieran Sparks,1-574-793-9882,lorem.ipsum@travelers.com,204-9848 Cras Rd.,33714,California,"$59,826.52 ",Marketing_Specialist
John Kane,(931) 651-4662,ac@travelers.com,"Ap #832-1951 Vel, St.",49081,Idaho,"$86,636.98 ",Claims_Adjuster
Uriel Sampson,(690) 250-4174,elit.dictum@travelers.com,"P.O. Box 148, 8950 Luctus Street",58211,Georgia,"$82,051.06 ",Insurance_Agent/Broker
Wang Faulkner,1-711-122-4663,scelerisque.sed.sapien@travelers.uk,4497 Fringilla St.,22923,Arizona,"$70,978.42 ",Claims_Examiner
Armando Levy,1-114-729-2376,erat.eget@travelers.uk,"P.O. Box 955, 1271 Metus. St.",86525,Arizona,"$80,235.56 ",Customer_Service_Representative
Scott Ball,(963) 940-4856,ipsum.non.arcu@travelers.com,918 Non Ave,46056,Arizona,"$95,360.25 ",HR_Specialist
Myra Burch,1-654-452-8014,aenean@travelers.uk,Ap #230-9062 Ut Road,78393,Alabama,"$65,287.34 ",Compliance_Officer
Jonah Hodge,(552) 852-3542,purus.ac.tellus@travelers.uk,5037 Consectetuer Street,16625,Delaware,"$40,445.45 ",Claims_Adjuster
Cathleen Pitts,(671) 369-3185,adipiscing@travelers.com,379-6502 Vel Ave,67656,Tennessee,"$73,946.34 ",Loss_Control_Specialist
Byron Blair,(317) 614-8528,curabitur.egestas@travelers.com,217-2744 Quisque St.,52266,Connecticut,"$55,624.04 ",Compliance_Officer
Cara Saunders,(476) 321-8251,mauris.suspendisse@travelers.com,919-3638 Nec Rd.,37250,Alaska,"$47,347.73 ",Operations_Manager
Madonna Tyler,1-733-449-6452,mauris@travelers.uk,4688 Phasellus Avenue,67367,Oklahoma,"$65,432.48 ",Claims_Adjuster
Moana Douglas,1-448-372-8252,malesuada@travelers.com,Ap #438-8185 Ultrices St.,57547,Tennessee,"$73,172.93 ",Data_Analyst
Richard Ewing,(611) 895-6057,eu.erat.semper@travelers.com,Ap #311-7256 Nullam Ave,21520,Wyoming,"$44,671.05 ",Data_Analyst
Doris Rasmussen,(692) 497-0611,velit.in.aliquet@travelers.uk,518-4212 Adipiscing Avenue,89651,Georgia,"$82,950.20 ",IT_Specialist
Sebastian Prince,1-379-539-0313,elit.fermentum@travelers.com,Ap #177-4395 Dolor Road,50772,Montana,"$44,679.11 ",Product_Manager
Fay Miles,1-318-672-8626,a.magna.lorem@travelers.uk,698-9787 Neque. St.,61718,Utah,"$57,690.87 ",IT_Specialist
Valentine Vaughan,(943) 905-3260,egestas@travelers.uk,Ap #465-2555 Magna. Ave,42872,Mississippi,"$92,763.14 ",Sales_Manager
Kennan Foley,1-342-674-2843,morbi.quis.urna@travelers.com,Ap #396-6691 Vitae Road,56536,Utah,"$85,080.64 ",Claims_Examiner
Jacqueline Sweet,1-874-824-6127,vitae.sodales.nisi@travelers.uk,893-335 Ultricies Road,53871,Montana,"$69,066.73 ",Compliance_Officer
Carly Holden,1-864-427-6732,pharetra.nibh.aliquam@travelers.uk,"Ap #714-8512 Id, Av.",16771,Nevada,"$98,517.90 ",Claims_Adjuster
Quinn Riddle,1-348-978-5665,vel@travelers.com,Ap #907-2243 Dolor. Street,35416,Wisconsin,"$82,206.64 ",Loss_Control_Specialist
Dahlia Gilbert,(636) 231-4212,quis.tristique@travelers.uk,Ap #230-4338 Nulla. Road,53700,Colorado,"$96,414.39 ",Customer_Service_Representative
Armando Wilkinson,(447) 366-9141,libero.et@travelers.com,Ap #460-3320 Ipsum St.,99632,Iowa,"$92,223.97 ",Loss_Control_Specialist
Jael Moreno,(824) 556-1137,aenean@travelers.com,672-5164 Et St.,35652,Arkansas,"$77,866.00 ",IT_Specialist
Gannon Stephenson,1-767-185-1165,aliquet@travelers.com,1984 Et Road,45205,Massachusetts,"$67,906.50 ",Actuary
Whoopi Mejia,1-891-416-9718,sit.amet@travelers.uk,"575-355 Congue, Ave",82035,Iowa,"$79,494.50 ",Underwriter
Arsenio Hardin,(975) 593-1916,arcu.ac@travelers.uk,Ap #887-4503 Libero. Rd.,36474,Connecticut,"$51,862.51 ",HR_Specialist
Pearl Rice,(553) 140-1260,pellentesque.ultricies@travelers.uk,"P.O. Box 470, 1902 Amet, St.",74486,Nebraska,"$51,752.51 ",Compliance_Officer
Ezra Preston,(190) 268-3867,aliquam.nisl@travelers.com,915-3022 Eget Street,46767,Oregon,"$90,844.58 ",Operations_Manager
Rowan Moss,(827) 672-2235,iaculis.nec@travelers.uk,887-6854 Sollicitudin Rd.,87386,Connecticut,"$40,986.29 ",Compliance_Officer
Joseph Griffin,(674) 883-4524,nunc@travelers.com,7391 Ultricies Av.,23144,Tennessee,"$69,125.22 ",Claims_Adjuster
Janna Norton,1-333-663-5167,lobortis.class.aptent@travelers.uk,1841 Tellus. St.,60215,Arizona,"$82,725.80 ",Training_and_Development_Manager
Kermit Lambert,1-308-256-9178,felis@travelers.uk,307 Porttitor Ave,53843,Kentucky,"$69,021.78 ",IT_Specialist
Igor Hansen,(282) 625-6801,amet.risus@travelers.com,2972 Lorem Rd.,81481,Kansas,"$56,289.93 ",HR_Specialist
Aphrodite Rocha,(872) 426-3849,elit.sed.consequat@travelers.com,Ap #416-8830 Quis Rd.,73854,Maryland,"$74,538.57 ",Insurance_Agent/Broker
Dai Roberts,(730) 713-8530,nec@travelers.uk,282-6561 Sed Ave,99547,California,"$85,404.75 ",Risk_Manager
Lisandra Church,1-816-233-9152,luctus.lobortis.class@travelers.com,647-4775 Lacinia Rd.,70916,Wyoming,"$74,816.07 ",Sales_Manager
Porter Bright,1-645-733-2714,velit.in@travelers.com,124-6757 Curabitur St.,86308,Kentucky,"$69,268.94 ",Product_Manager
Damian Schroeder,(374) 823-6321,erat.vitae.risus@travelers.uk,Ap #513-3350 Ac Street,78443,Virginia,"$67,371.70 ",IT_Specialist
MacKensie Compton,(754) 191-4556,rhoncus.id.mollis@travelers.uk,Ap #668-6613 Nec Road,20982,Arizona,"$84,732.80 ",Loss_Control_Specialist
Galena Stanley,(261) 898-1610,phasellus.nulla@travelers.uk,"P.O. Box 440, 2652 Pharetra Rd.",71007,Wisconsin,"$40,179.69 ",Insurance_Agent/Broker
Fritz Nicholson,(112) 124-6128,odio.etiam@travelers.com,753-1510 Odio. Rd.,62181,Florida,"$63,846.86 ",Compliance_Officer
Hayfa Compton,1-657-234-3465,at.iaculis.quis@travelers.com,Ap #283-9362 Dolor St.,75877,Alaska,"$41,380.74 ",Product_Manager
Patrick Tanner,1-576-431-9396,sed.pede.cum@travelers.uk,7471 Felis St.,62336,Ohio,"$59,006.18 ",HR_Specialist
Amos Mccray,1-356-680-3446,semper.dui.lectus@travelers.com,"P.O. Box 617, 1187 Venenatis Street",66864,Florida,"$69,070.97 ",Financial_Analyst
Fitzgerald Blackburn,1-277-614-8016,dignissim.magna.a@travelers.com,Ap #150-5760 Orci. Rd.,76701,Alaska,"$49,426.18 ",Training_and_Development_Manager
Ruby Quinn,1-581-812-2448,sapien.imperdiet@travelers.uk,720-4867 Non Street,96329,Wisconsin,"$51,748.53 ",Loss_Control_Specialist
Amanda Morris,(200) 844-3096,mi.fringilla@travelers.uk,Ap #357-4462 Sem St.,66781,Arizona,"$63,713.99 ",IT_Specialist
Stuart Alston,1-422-681-6864,et.magna.praesent@travelers.uk,Ap #760-8456 Hendrerit St.,23740,California,"$89,020.90 ",Customer_Service_Representative
Steel Roberson,(128) 962-3721,dis.parturient@travelers.com,"P.O. Box 556, 8100 Cursus Ave",25133,Washington,"$96,749.75 ",Data_Analyst
Ina Meadows,(781) 213-3183,cursus.purus@travelers.uk,Ap #314-5129 Nullam Street,17668,Maine,"$99,450.74 ",Compliance_Officer
Cassandra Mckenzie,1-611-725-2556,vel.sapien@travelers.uk,9541 Erat Rd.,65487,Nevada,"$90,977.59 ",Compliance_Officer
Olga Trevino,1-872-917-6865,integer.id.magna@travelers.com,6646 Euismod Road,20781,Tennessee,"$53,106.71 ",IT_Specialist
Sydnee Fox,(287) 319-6857,dictum.augue@travelers.com,Ap #648-3566 Fusce Av.,37062,Ohio,"$97,714.72 ",Risk_Manager
Arden Burgess,(830) 346-5067,arcu.ac@travelers.uk,Ap #420-9066 Volutpat. Avenue,38511,Michigan,"$64,359.48 ",HR_Specialist
Katelyn Pitts,1-848-659-2771,morbi.vehicula@travelers.uk,636-4667 Metus. Rd.,44786,Kansas,"$56,226.10 ",Operations_Manager
Amanda Fitzgerald,1-676-588-4257,nunc.sed@travelers.com,"P.O. Box 204, 3696 Dis St.",75434,Georgia,"$86,675.27 ",Operations_Manager
Lisandra Kidd,1-262-686-8747,ut.aliquam@travelers.uk,859 Massa. St.,74672,Minnesota,"$94,120.87 ",Training_and_Development_Manager
Brandon Myers,1-226-144-2540,nascetur.ridiculus.mus@travelers.com,4851 Diam Ave,73619,Nevada,"$53,592.26 ",Risk_Manager
Faith Howell,1-839-212-8152,fusce@travelers.com,Ap #314-8785 Eu Avenue,55432,Delaware,"$58,560.18 ",Insurance_Agent/Broker
Unity Baird,1-436-433-1612,sodales@travelers.com,446-2408 Dapibus Ave,31771,Arizona,"$63,918.25 ",Underwriter
Ahmed Estes,(256) 802-1058,odio.auctor.vitae@travelers.com,8576 Eu St.,68527,Washington,"$53,819.16 ",Compliance_Officer
Elizabeth Dominguez,1-754-828-4494,elit.sed.consequat@travelers.uk,557-1020 Feugiat Street,72405,Georgia,"$40,947.00 ",Product_Manager
Camden Mullen,1-662-281-3484,a.neque@travelers.com,Ap #436-6583 Faucibus Rd.,78409,Nebraska,"$95,259.48 ",Product_Manager
Tobias Forbes,(224) 886-8923,eget@travelers.uk,Ap #213-2133 Elementum St.,41766,Washington,"$80,566.04 ",Compliance_Officer
Catherine Melendez,1-454-712-5548,phasellus.dapibus@travelers.com,Ap #685-6362 Libero St.,67142,Louisiana,"$90,121.27 ",Financial_Analyst
Hadassah Stone,(574) 513-5354,vitae@travelers.uk,"P.O. Box 181, 7078 Dolor Street",36584,Tennessee,"$50,110.54 ",Financial_Analyst
Isabelle Kaufman,(321) 422-3697,sapien.cras@travelers.uk,"P.O. Box 217, 2540 Aliquam Rd.",35873,Louisiana,"$67,592.14 ",Customer_Service_Representative
Aiko Brock,1-591-233-1688,in.condimentum@travelers.uk,552-7382 Sed Rd.,55121,Iowa,"$58,320.33 ",Financial_Analyst
Nevada Delaney,(488) 237-5115,nunc@travelers.com,6172 Vestibulum St.,46840,Wyoming,"$72,355.75 ",Legal_Counsel
Jenna Joyner,(237) 560-3214,est.congue@travelers.uk,"P.O. Box 637, 6895 Cras Ave",86840,Connecticut,"$61,358.50 ",HR_Specialist
Nasim Huff,1-265-745-6808,id.enim@travelers.com,148-479 Aliquet. St.,23833,Indiana,"$99,204.30 ",Customer_Service_Representative
Zorita Daniel,(923) 295-7821,tincidunt@travelers.uk,4885 Dictum Rd.,68147,Alaska,"$56,696.45 ",Marketing_Specialist
Kylie Carlson,(203) 443-7296,suspendisse@travelers.com,3556 Velit. Rd.,85566,Arizona,"$87,534.53 ",Compliance_Officer
Florence Huffman,(817) 393-7152,nullam@travelers.com,"P.O. Box 528, 306 Malesuada St.",43294,Wisconsin,"$52,431.50 ",Claims_Examiner
Brandon Pugh,(935) 848-7567,gravida.nunc.sed@travelers.com,"P.O. Box 708, 5374 Aliquet St.",38662,Missouri,"$58,190.47 ",Data_Analyst
Marcia Christian,(688) 631-2512,sollicitudin.adipiscing.ligula@travelers.uk,948-5855 Vivamus Rd.,53011,Massachusetts,"$49,295.80 ",Underwriter
Damon Wiley,(532) 567-7223,cursus.vestibulum.mauris@travelers.com,"P.O. Box 880, 1170 Sit Rd.",14148,Alabama,"$51,860.19 ",Data_Analyst
Rogan Mccarty,1-888-527-6339,curabitur.massa@travelers.uk,1497 Sem Street,20519,Georgia,"$72,465.79 ",Financial_Analyst
Wing Wall,(963) 474-5145,arcu.vestibulum@travelers.com,9907 Nunc Rd.,75972,Louisiana,"$70,216.53 ",Operations_Manager
Anjolie Avila,1-408-851-1885,integer.mollis.integer@travelers.uk,721-7884 Sapien Rd.,23796,California,"$41,635.60 ",Sales_Manager
Caldwell White,1-327-423-7164,dolor.dolor@travelers.uk,3395 Consequat Ave,88286,Mississippi,"$73,850.20 ",Sales_Manager
Mary Holloway,(852) 229-4352,curabitur@travelers.uk,296-6459 Tristique St.,13721,Massachusetts,"$59,675.33 ",Training_and_Development_Manager
Cora Mills,1-788-489-8032,cursus.vestibulum@travelers.uk,675-3070 Nulla. Rd.,99581,Indiana,"$42,580.24 ",Customer_Service_Representative
Murphy Monroe,(276) 770-8224,risus.in@travelers.uk,Ap #311-9845 Cras Ave,24317,Hawaii,"$97,424.57 ",Legal_Counsel
Aurora Holmes,1-259-496-0823,facilisis.suspendisse@travelers.com,Ap #917-7199 Cum Street,43855,Nebraska,"$98,988.07 ",IT_Specialist
Jerry Leblanc,(250) 419-7294,ac.mattis@travelers.com,"P.O. Box 528, 1304 Ac St.",78025,Kentucky,"$93,394.46 ",Insurance_Agent/Broker
Mariko Fields,1-403-862-7724,sit.amet@travelers.uk,Ap #416-4536 Malesuada. St.,70121,Montana,"$46,196.13 ",Data_Analyst
Alfonso Fleming,(448) 797-0202,consequat@travelers.uk,"P.O. Box 302, 2108 Dictum Road",81026,Wyoming,"$76,323.39 ",Claims_Adjuster
Harding Fuentes,(314) 774-7080,phasellus.vitae.mauris@travelers.uk,Ap #608-9235 Eget Street,46758,Indiana,"$76,314.49 ",Product_Manager
Martena Hampton,(788) 514-7225,morbi.vehicula@travelers.uk,Ap #528-308 Ullamcorper. Ave,84291,California,"$85,592.20 ",Compliance_Officer
Michael Pennington,(446) 940-1333,facilisis.eget.ipsum@travelers.uk,"442-4651 Amet, Road",82576,Michigan,"$71,066.75 ",Loss_Control_Specialist
Peter Murphy,1-331-341-3717,facilisis.eget@travelers.uk,105-7175 Rhoncus. Rd.,52859,Utah,"$87,739.16 ",Marketing_Specialist
Kylan Myers,(858) 564-1366,vehicula@travelers.uk,508-6557 Fusce Street,79373,Kansas,"$67,422.16 ",Insurance_Agent/Broker
Mercedes Riddle,(607) 723-8641,egestas.aliquam@travelers.uk,"2060 A, Avenue",54036,Indiana,"$79,835.82 ",Claims_Adjuster
Jermaine Saunders,1-834-645-7298,metus@travelers.com,102-928 Mauris Rd.,74970,Colorado,"$42,342.29 ",Risk_Manager
Jelani Stanley,1-761-727-4522,fringilla.cursus@travelers.uk,150-9908 Non St.,20222,Alaska,"$92,271.42 ",Compliance_Officer
Kevin Allen,(582) 244-5664,libero@travelers.com,"600-6320 Tellus, Avenue",97925,Oregon,"$46,485.01 ",Claims_Adjuster
Cally Schmidt,1-203-686-7932,massa.quisque.porttitor@travelers.com,Ap #623-7553 In Road,21446,Washington,"$85,306.04 ",Underwriter
Megan Bentley,1-276-872-2168,sapien@travelers.uk,463-6547 Nunc Ave,60863,Pennsylvania,"$93,859.59 ",Claims_Adjuster
Delilah Huff,(694) 511-1244,enim.commodo.hendrerit@travelers.uk,5523 Varius Ave,27638,Minnesota,"$80,510.89 ",Loss_Control_Specialist
Chancellor Mccullough,(292) 982-5653,ipsum.donec@travelers.uk,"P.O. Box 406, 2371 Imperdiet Ave",95116,Massachusetts,"$97,157.62 ",Customer_Service_Representative
Hilel Cash,1-612-265-4252,phasellus.elit@travelers.com,5638 Risus Rd.,35310,Alabama,"$64,110.97 ",Financial_Analyst
Hasad Welch,1-845-632-0201,non@travelers.uk,Ap #777-7242 Sed Avenue,35151,Wisconsin,"$93,181.43 ",Sales_Manager
Eric Gonzales,1-524-431-2211,egestas.sed.pharetra@travelers.uk,4645 Sodales St.,73272,Ohio,"$70,359.58 ",Risk_Manager
Aristotle Good,1-766-627-9201,nec@travelers.uk,643-2645 Ut Rd.,31360,Louisiana,"$56,323.56 ",Risk_Manager
Adele Ochoa,1-533-615-3357,tortor.nunc@travelers.com,5413 Dis St.,26397,Massachusetts,"$53,840.27 ",Risk_Manager
Caesar Lawrence,1-406-618-2742,laoreet.libero@travelers.com,6413 Non Road,56511,Colorado,"$66,108.40 ",Compliance_Officer
Camille Petty,1-393-483-3888,odio.semper@travelers.uk,880-4757 Nec St.,99750,Idaho,"$87,937.20 ",Marketing_Specialist
Nyssa Juarez,(255) 767-7715,nisi.mauris.nulla@travelers.uk,Ap #677-9299 Feugiat Rd.,58281,Colorado,"$47,583.55 ",Financial_Analyst
April Knapp,1-668-213-2061,molestie.tortor.nibh@travelers.com,7535 Nibh Rd.,45375,Alabama,"$70,711.41 ",Underwriter
Ila Ray,1-738-204-4859,ac@travelers.com,517-3000 Praesent Avenue,57132,Maine,"$46,517.48 ",Data_Analyst
Deborah Parks,1-528-806-6896,ornare.libero.at@travelers.uk,Ap #692-6131 Magnis Street,43303,Nebraska,"$79,789.87 ",IT_Specialist
Wyoming Burt,(823) 796-6938,lectus@travelers.com,874-2278 Gravida St.,13968,Oklahoma,"$91,846.17 ",Loss_Control_Specialist
Evelyn Jimenez,(224) 254-8167,eros@travelers.com,6947 In Street,92710,Kentucky,"$91,886.76 ",Risk_Manager
Amal Robles,1-436-555-2021,ad@travelers.uk,914 Sapien Avenue,21062,Texas,"$95,032.24 ",Data_Analyst
Zia Petty,(633) 543-5423,tempor@travelers.com,"Ap #808-1634 Congue, Av.",53208,Connecticut,"$58,738.95 ",Insurance_Agent/Broker
Quinlan Brooks,1-138-971-0793,convallis.dolor.quisque@travelers.uk,9305 Ipsum. Street,28372,Georgia,"$96,551.27 ",Claims_Adjuster
May Francis,(821) 437-6897,convallis.convallis@travelers.uk,"P.O. Box 172, 6326 Diam Avenue",48022,Delaware,"$80,167.26 ",Claims_Adjuster
Boris Schwartz,(424) 826-3417,lectus@travelers.uk,1033 Eleifend St.,73024,Montana,"$47,311.06 ",Marketing_Specialist
Alexandra Greene,1-102-543-0675,at.fringilla.purus@travelers.uk,921-5379 Sapien St.,83356,Mississippi,"$97,840.75 ",IT_Specialist
Patrick Vincent,(367) 829-2066,arcu.morbi.sit@travelers.uk,"P.O. Box 987, 2945 Mauris. Rd.",47725,Nebraska,"$79,789.08 ",Risk_Manager
Emerald Hahn,(531) 163-3234,arcu.nunc.mauris@travelers.com,160-8760 Mauris. Rd.,39233,Colorado,"$72,278.99 ",Risk_Manager
Aiko Mcfadden,(634) 772-3331,nunc.nulla@travelers.com,4806 Iaculis Avenue,99830,Alabama,"$62,924.18 ",Sales_Manager
Isabella Barrett,1-667-831-2439,phasellus@travelers.com,Ap #180-4690 Nec St.,83793,Texas,"$87,364.80 ",Compliance_Officer
Slade Bradford,1-206-671-9256,donec.fringilla.donec@travelers.uk,"P.O. Box 382, 3489 Imperdiet St.",86539,Mississippi,"$60,637.97 ",Customer_Service_Representative
Herman Bullock,1-332-188-2874,vestibulum.ut@travelers.uk,333-5316 Pharetra Rd.,26854,Arkansas,"$91,218.58 ",Loss_Control_Specialist
Thomas Clarke,1-338-760-3402,proin.eget@travelers.uk,341-7000 Vitae Ave,99686,Massachusetts,"$44,249.79 ",Legal_Counsel
Skyler Pitts,(955) 295-4883,tellus.imperdiet@travelers.com,"Ap #264-2815 Id, Avenue",94688,Indiana,"$56,933.53 ",Product_Manager
Savannah Richards,(670) 156-5523,nulla.cras@travelers.uk,"P.O. Box 629, 1798 Dui. Rd.",93617,Vermont,"$89,141.45 ",Claims_Adjuster
Jorden Welch,1-752-984-3522,rutrum@travelers.uk,554-3019 Nam St.,68951,Delaware,"$51,964.92 ",Actuary
Maryam Vaughan,(277) 951-2544,magna.et.ipsum@travelers.com,"P.O. Box 550, 3280 Auctor. Rd.",85462,Arizona,"$62,800.64 ",Product_Manager
Isaac Molina,1-721-747-4795,pede.ultrices@travelers.uk,"5458 Non, Ave",72955,Minnesota,"$48,994.83 ",Product_Manager
Kirestin Joyner,(287) 277-3184,pharetra.quisque@travelers.uk,432-8225 Consequat Av.,42695,Michigan,"$83,097.94 ",Customer_Service_Representative
Upton Horn,1-617-859-7161,vivamus.sit@travelers.com,"P.O. Box 761, 6441 Eu Avenue",74283,Arkansas,"$54,027.91 ",Legal_Counsel
Garrett Dunn,(944) 417-7064,primis.in.faucibus@travelers.com,556-2073 Consectetuer Avenue,36471,Kansas,"$78,481.88 ",Sales_Manager
Shaine Walter,1-668-282-3262,nunc.mauris.morbi@travelers.com,Ap #753-232 Varius Rd.,13815,Kansas,"$65,686.30 ",Claims_Examiner
Kyra Perkins,(157) 562-6745,nibh@travelers.com,Ap #495-9663 Donec Rd.,84876,Massachusetts,"$94,060.07 ",Legal_Counsel
Ora Moody,1-418-876-1963,enim.mi@travelers.com,"896-1128 Orci, Street",23118,Oregon,"$86,726.42 ",Product_Manager
Abdul Nash,(837) 852-1473,consectetuer.rhoncus@travelers.com,Ap #250-1271 Ipsum Av.,73748,Maryland,"$63,661.48 ",Underwriter
Lars Palmer,(858) 462-7774,ullamcorper.magna.sed@travelers.com,"557-6490 Amet, St.",27051,Arizona,"$97,755.67 ",Customer_Service_Representative
May Wright,(845) 338-4824,accumsan@travelers.com,804-4515 Purus Av.,85785,Ohio,"$49,096.60 ",Risk_Manager
Jason Larson,(408) 437-3753,cursus.et@travelers.uk,"P.O. Box 394, 2708 Ac Avenue",92167,Minnesota,"$99,643.36 ",Sales_Manager
Noelle Hensley,(782) 271-0882,integer.tincidunt.aliquam@travelers.uk,Ap #879-8925 Non Av.,48476,Minnesota,"$40,471.94 ",Claims_Examiner
Sawyer Kennedy,(916) 542-5865,neque.sed@travelers.com,Ap #166-9370 Quam. Street,23887,Missouri,"$45,161.49 ",HR_Specialist
Dillon Mcknight,(417) 297-8643,semper.nam@travelers.com,Ap #905-2158 Turpis Road,46457,Oregon,"$80,703.22 ",Claims_Examiner
Amber Castillo,1-544-211-8778,ipsum.suspendisse@travelers.uk,"P.O. Box 991, 4987 Eu Rd.",86443,Connecticut,"$80,846.74 ",Compliance_Officer
Clare Mcfarland,(305) 747-9769,consectetuer.euismod@travelers.uk,Ap #646-791 Magna St.,68476,Oregon,"$91,111.21 ",Risk_Manager
Howard Drake,1-139-788-3479,penatibus.et.magnis@travelers.com,828-8067 Magnis Rd.,87244,Vermont,"$96,821.11 ",HR_Specialist
Xyla Gibbs,1-434-394-7940,urna@travelers.uk,"P.O. Box 974, 4134 Donec St.",71544,Alabama,"$42,235.62 ",Data_Analyst
Fleur Martinez,(839) 320-3286,lobortis.quam@travelers.uk,734-5818 Enim Rd.,53675,California,"$54,717.44 ",Claims_Adjuster
Deacon Francis,1-468-109-1858,amet.orci@travelers.com,Ap #429-2334 Elit Ave,21273,Oregon,"$97,771.36 ",Customer_Service_Representative
Brennan Dale,(835) 612-7174,cras@travelers.uk,Ap #335-8530 Habitant Ave,65614,Utah,"$71,901.31 ",Sales_Manager
Ross Ellis,1-589-561-9204,natoque.penatibus.et@travelers.uk,2184 Eu Rd.,71022,Louisiana,"$81,477.83 ",Product_Manager
Keefe Baird,(268) 741-1324,nibh@travelers.uk,Ap #740-9889 Tincidunt Street,15174,Arkansas,"$63,075.45 ",Operations_Manager
Minerva Barnett,(593) 443-5018,leo.elementum.sem@travelers.com,624-8233 Quis St.,86103,Hawaii,"$65,486.09 ",Claims_Examiner
Karleigh Hines,1-582-841-2178,eu@travelers.uk,"P.O. Box 332, 6221 Sed, Rd.",75378,Mississippi,"$91,597.35 ",Legal_Counsel
Ashely Pickett,1-321-381-9872,leo@travelers.uk,"P.O. Box 817, 4747 Auctor. Av.",80620,Michigan,"$57,198.09 ",IT_Specialist
Paul Rutledge,(246) 282-4124,nec.enim.nunc@travelers.com,5747 Neque Av.,84827,Minnesota,"$80,623.43 ",Underwriter
Lisandra Oneal,(423) 952-1459,in.ornare@travelers.uk,266-2345 Ac St.,13261,Alabama,"$86,343.08 ",Claims_Adjuster
Leah Newman,(130) 243-1240,praesent.eu@travelers.uk,806-3952 Vitae Av.,77825,Louisiana,"$46,679.14 ",Operations_Manager
Maya Mcclain,(821) 379-1302,blandit@travelers.uk,Ap #474-638 Proin Rd.,24331,California,"$40,020.31 ",Product_Manager
Abigail Morse,(868) 669-7563,faucibus.ut@travelers.uk,Ap #198-7133 Inceptos Rd.,27896,Kentucky,"$64,618.65 ",Sales_Manager
Lareina Becker,1-728-167-6203,sapien.aenean@travelers.uk,448-1520 At Road,40843,Indiana,"$76,946.18 ",Claims_Examiner
Christian Mcpherson,1-877-294-8598,tristique.ac.eleifend@travelers.com,3844 Fusce St.,84338,Missouri,"$60,393.40 ",Data_Analyst
Camilla Parks,(226) 131-6496,tortor.dictum.eu@travelers.uk,4206 Cum Street,71251,Georgia,"$67,017.39 ",Risk_Manager
Amethyst Fitzgerald,1-680-241-5721,nec.tempus.scelerisque@travelers.uk,"562-4405 Pellentesque, Avenue",57563,Nevada,"$41,696.46 ",Operations_Manager
Shelley Bullock,1-462-485-8522,sit.amet@travelers.uk,"P.O. Box 426, 6441 Commodo Av.",99549,Kentucky,"$90,934.10 ",Financial_Analyst
Naida Mueller,1-732-258-5071,accumsan.convallis@travelers.com,Ap #609-2487 Sit St.,27731,Georgia,"$57,063.05 ",Marketing_Specialist
Jocelyn Bauer,(642) 955-8416,sapien.nunc.pulvinar@travelers.com,Ap #480-6572 Nullam Av.,43113,Washington,"$51,913.78 ",Claims_Examiner
Kylee Newton,1-822-379-4764,lorem.ut@travelers.com,Ap #525-4614 Duis St.,34844,Florida,"$59,830.68 ",Operations_Manager
Abel Mcguire,(223) 852-9862,etiam@travelers.uk,Ap #235-4780 Nunc Road,85947,Nevada,"$45,688.96 ",Compliance_Officer
Meghan Abbott,1-438-815-4822,mi@travelers.uk,"2254 Montes, St.",36997,Tennessee,"$85,170.26 ",Compliance_Officer
Leah Bender,1-382-317-8535,est@travelers.com,5636 Lorem Road,62767,Arkansas,"$70,979.17 ",Loss_Control_Specialist
Ursula Dunn,1-451-534-9613,dui@travelers.uk,"P.O. Box 550, 1437 Non Avenue",42637,Indiana,"$92,045.76 ",Claims_Examiner
Judith Thornton,1-355-133-1276,non.lobortis@travelers.com,Ap #109-9639 Magna. Avenue,74679,Colorado,"$73,769.88 ",Loss_Control_Specialist
Maya Mcfarland,1-564-878-8012,penatibus@travelers.com,2397 Et Rd.,36730,Louisiana,"$97,061.39 ",Loss_Control_Specialist
Basil Bonner,(758) 947-5686,cursus.integer@travelers.com,9473 Risus. Avenue,32514,Virginia,"$88,791.18 ",Operations_Manager
Jonah Reid,1-647-582-2135,nec@travelers.com,191-5498 Sit Ave,60552,Missouri,"$93,970.47 ",Operations_Manager
Odessa Burris,1-341-792-5921,malesuada.ut.sem@travelers.uk,5332 In Rd.,64730,Utah,"$61,890.82 ",Risk_Manager
Ayanna Guerrero,1-783-823-0514,elit@travelers.uk,9489 Massa. Rd.,87821,Ohio,"$60,970.91 ",IT_Specialist
Brent Herrera,1-293-379-5951,nec.leo.morbi@travelers.com,"P.O. Box 836, 1593 Molestie Street",82138,Alaska,"$65,354.27 ",Financial_Analyst
Marny Mcneil,(856) 403-5915,dis.parturient@travelers.uk,"P.O. Box 218, 9155 Neque. St.",77375,Hawaii,"$46,910.10 ",Legal_Counsel
Lance Bird,1-357-653-5151,egestas.duis.ac@travelers.uk,5207 Feugiat Rd.,15738,Oklahoma,"$75,250.01 ",Insurance_Agent/Broker
Austin Shaffer,(231) 256-4483,vestibulum.ut@travelers.com,2740 Tortor. Rd.,35514,Alabama,"$65,632.77 ",Loss_Control_Specialist
Kim Solomon,(239) 841-2728,semper.pretium@travelers.uk,"Ap #816-2069 Non, Street",46393,Missouri,"$92,016.34 ",IT_Specialist
Malcolm Leblanc,1-415-358-6676,iaculis.odio.nam@travelers.com,"P.O. Box 927, 8340 Nullam Rd.",36145,Oregon,"$43,235.44 ",Claims_Adjuster
Uriah O'Neill,(699) 902-2120,non.ante@travelers.uk,"P.O. Box 808, 3242 Aliquam Ave",47672,Hawaii,"$68,946.32 ",Insurance_Agent/Broker
Sandra Thornton,1-346-884-1511,lectus@travelers.com,"P.O. Box 511, 9417 Eu St.",50846,Delaware,"$79,032.69 ",Operations_Manager
Walker Terrell,1-845-413-9062,praesent.eu.nulla@travelers.uk,Ap #245-2955 Semper St.,85384,Wyoming,"$55,298.24 ",Product_Manager
Yardley Heath,1-517-483-9675,malesuada@travelers.uk,6267 Donec Avenue,50380,California,"$49,067.46 ",Loss_Control_Specialist
Marsden Larsen,(566) 788-4900,rutrum@travelers.uk,Ap #776-5384 Consectetuer Ave,97852,Florida,"$60,390.14 ",Customer_Service_Representative
Alexander Nguyen,1-198-126-3678,duis@travelers.com,813-3763 Egestas. St.,87456,Nevada,"$63,604.94 ",Operations_Manager
Leandra Delaney,(723) 292-3638,felis.purus@travelers.com,Ap #202-4844 Augue Avenue,50289,Arizona,"$50,824.31 ",Sales_Manager
Teegan Mcclure,(198) 245-5191,luctus.et@travelers.uk,"Ap #338-8040 Elit, Ave",77277,Tennessee,"$99,815.94 ",Loss_Control_Specialist
Otto Hewitt,1-882-777-6755,ultrices@travelers.uk,Ap #414-6664 Laoreet Road,54767,Idaho,"$56,080.68 ",Loss_Control_Specialist
Paul Kemp,1-257-461-1255,aliquet.vel@travelers.com,305-8628 Mattis. Avenue,66358,California,"$53,614.10 ",Customer_Service_Representative
Jane Johnson,1-928-721-2282,ac.risus@travelers.uk,563-5922 Iaculis Rd.,47824,Kansas,"$60,781.17 ",Product_Manager
Maya Gilbert,(666) 589-0987,elit.erat@travelers.com,295-6627 Ornare St.,26967,Maine,"$70,788.73 ",Training_and_Development_Manager
Jolene Malone,(767) 826-5802,nec.malesuada@travelers.uk,646-6508 Neque. Avenue,67522,Maine,"$59,383.53 ",Marketing_Specialist
Kenneth Wong,(724) 222-6245,amet.orci@travelers.com,"P.O. Box 514, 1838 Aliquam Rd.",86794,Nevada,"$51,249.24 ",Loss_Control_Specialist
Quentin England,1-385-111-5705,vel@travelers.uk,877-6810 Auctor Avenue,99968,Iowa,"$64,905.82 ",Product_Manager
Alden James,1-337-742-1153,eget.nisi.dictum@travelers.com,"324-7802 Nec, Avenue",62153,Hawaii,"$86,147.10 ",IT_Specialist
Raya Boone,1-197-662-4260,pede.suspendisse@travelers.uk,"P.O. Box 367, 2890 Curabitur Av.",72755,Delaware,"$69,112.84 ",Financial_Analyst
Camden Miranda,(771) 728-3483,suspendisse.aliquet@travelers.com,Ap #716-2303 Mattis. Rd.,39312,Arizona,"$47,520.99 ",HR_Specialist
Latifah Klein,1-651-383-1192,ultrices.posuere@travelers.com,246-1764 Neque Road,89144,Arizona,"$66,386.12 ",IT_Specialist
Anne Burnett,1-866-873-6616,sed.orci@travelers.com,Ap #713-7572 Augue Street,90178,Idaho,"$85,541.97 ",HR_Specialist
Camden Watkins,1-266-284-1653,cras.lorem@travelers.com,"P.O. Box 118, 583 Tempus Street",95444,Texas,"$90,660.67 ",Operations_Manager
Shelly Anthony,(317) 177-2812,scelerisque.neque.nullam@travelers.uk,Ap #263-4852 Sociis St.,79188,Missouri,"$59,365.59 ",Marketing_Specialist
Lane Alvarez,(319) 335-3224,vel.arcu@travelers.uk,9153 Facilisis. Rd.,94512,Maine,"$91,847.60 ",Claims_Adjuster
Elizabeth Rollins,(796) 672-6633,senectus.et@travelers.uk,770-2107 Urna. St.,69271,Virginia,"$58,323.63 ",Underwriter
Audra Ingram,1-548-511-6127,pharetra@travelers.uk,1848 Augue St.,57189,Alaska,"$91,348.13 ",Sales_Manager
Sigourney Ballard,1-732-723-2423,a.magna@travelers.uk,128-4920 Volutpat St.,57146,Missouri,"$69,708.21 ",Loss_Control_Specialist
Kenneth Valenzuela,(156) 594-5253,pharetra.nibh@travelers.com,"P.O. Box 349, 2065 Vulputate, Avenue",56570,Pennsylvania,"$69,944.50 ",Claims_Adjuster
Karleigh Phelps,(434) 651-4714,ac@travelers.uk,Ap #676-9342 Tristique Rd.,37667,Massachusetts,"$63,404.17 ",Risk_Manager
Kirestin Kinney,(388) 842-2893,amet.consectetuer.adipiscing@travelers.com,Ap #490-1983 Etiam Rd.,26686,Illinois,"$85,596.44 ",Product_Manager
Christine Mcguire,1-380-438-6144,facilisis.magna.tellus@travelers.uk,969-1920 Facilisis Av.,47582,Vermont,"$70,885.47 ",Risk_Manager
Catherine Jackson,1-222-781-7145,sed.sapien@travelers.com,351-9341 Egestas Ave,54544,Nevada,"$44,283.41 ",Marketing_Specialist
Forrest Brock,1-286-634-5451,et.magnis@travelers.com,"P.O. Box 816, 4440 Imperdiet St.",82265,Arkansas,"$64,420.09 ",Claims_Adjuster
Ian Mcdowell,(724) 289-6953,tellus.nunc@travelers.uk,"P.O. Box 207, 8405 Felis Avenue",93826,Louisiana,"$96,845.72 ",Claims_Examiner
Delilah Dillon,1-618-823-5167,eu.turpis@travelers.com,440-6356 Non Ave,36259,Florida,"$65,090.00 ",Customer_Service_Representative
Shannon Foley,(571) 478-1783,nunc@travelers.com,Ap #549-1870 Ac St.,32265,Montana,"$43,862.78 ",Operations_Manager
Yael Duncan,1-470-438-0984,eu@travelers.com,443-5138 Integer Ave,14113,Pennsylvania,"$51,059.28 ",Underwriter
Cassidy Cline,1-935-247-2541,urna@travelers.com,Ap #306-3012 Auctor Road,73787,Arizona,"$93,663.24 ",Claims_Examiner
Amaya Koch,1-325-628-1767,nec.tempus@travelers.uk,"P.O. Box 886, 8097 Nam Rd.",31498,Virginia,"$71,151.45 ",Marketing_Specialist
Marah Dotson,1-319-627-5926,vulputate.dui@travelers.uk,278-7673 Dolor Road,85349,Maine,"$67,990.58 ",IT_Specialist
Jackson Parrish,(735) 343-1607,non.arcu@travelers.com,Ap #607-2457 Mus. St.,69121,Hawaii,"$70,900.03 ",Product_Manager
Wendy Rhodes,1-269-355-2472,vel.sapien@travelers.uk,569-3556 Orci St.,15636,Mississippi,"$86,373.07 ",Legal_Counsel
Denise Wong,1-274-712-1133,dolor.vitae@travelers.uk,492-2111 Arcu. Ave,44244,Ohio,"$55,325.21 ",Training_and_Development_Manager
Cedric Fuller,1-857-837-3009,convallis.dolor@travelers.uk,975-8313 Proin Road,88456,Maryland,"$51,910.50 ",Data_Analyst
Nevada Blackwell,(153) 363-2677,sem.mollis@travelers.uk,"802-5020 Mauris, Rd.",17180,Washington,"$49,462.49 ",IT_Specialist
Melvin Key,1-572-126-5691,donec.tempor@travelers.uk,"P.O. Box 154, 7077 Ac Ave",51404,Oklahoma,"$89,735.99 ",HR_Specialist
Elmo Bonner,(976) 725-6113,lectus.pede@travelers.com,Ap #819-3313 Consequat St.,35664,Massachusetts,"$96,939.70 ",Compliance_Officer
Sybill Cobb,(371) 340-2132,cum.sociis.natoque@travelers.uk,436-8383 Cras St.,45330,Connecticut,"$90,621.43 ",HR_Specialist
Brian Booker,1-847-933-7688,gravida.praesent@travelers.uk,804-3414 Magna Rd.,88134,Texas,"$54,516.92 ",Customer_Service_Representative
Quinlan Blair,(782) 422-1256,inceptos.hymenaeos@travelers.com,"P.O. Box 848, 7050 Aenean Street",38064,Massachusetts,"$83,510.94 ",Risk_Manager
Melanie Griffin,(378) 632-6377,faucibus.orci.luctus@travelers.com,"Ap #488-5256 Laoreet, St.",68351,Delaware,"$64,581.08 ",Marketing_Specialist
Xantha Rutledge,(189) 715-2272,sed.nulla@travelers.uk,7018 Dolor. St.,83469,Virginia,"$91,660.61 ",Loss_Control_Specialist
Rigel Noble,1-299-547-6972,sed.malesuada@travelers.uk,"Ap #360-4773 Sed, St.",34279,Minnesota,"$70,263.34 ",Legal_Counsel
Lillith Murphy,(684) 891-9588,libero.et@travelers.com,Ap #159-5771 Velit Av.,85103,Kentucky,"$78,251.14 ",Sales_Manager
Palmer Robles,1-284-524-0134,ligula.aenean.euismod@travelers.com,Ap #597-844 Cum Rd.,35548,Louisiana,"$44,999.57 ",Data_Analyst
Fallon Munoz,1-615-776-4817,adipiscing.mauris@travelers.com,Ap #326-6883 Suspendisse Rd.,41628,Mississippi,"$85,077.27 ",Sales_Manager
Benjamin Santos,(212) 971-8973,aliquam@travelers.uk,4517 Aenean Ave,13411,Alaska,"$87,050.84 ",HR_Specialist
Hasad Burke,1-806-870-2474,ante@travelers.com,484-7909 Ut Avenue,63150,Oregon,"$48,806.69 ",Underwriter
Drew Rosario,(558) 684-5014,nec.urna@travelers.com,797-3050 Nec St.,27162,Indiana,"$80,571.85 ",IT_Specialist
Illana Morrow,1-188-752-2727,class@travelers.uk,3554 Eleifend Ave,52560,Tennessee,"$79,165.09 ",Marketing_Specialist
Galena Cunningham,1-575-817-6987,tempus.risus@travelers.uk,903-2539 Mauris Rd.,26356,Kansas,"$83,108.88 ",Data_Analyst
Cole Branch,(154) 375-7909,amet.risus@travelers.com,515-4601 Arcu Road,62036,Ohio,"$60,339.98 ",Operations_Manager
Renee Ramsey,(703) 562-4436,vitae.odio.sagittis@travelers.com,974-1727 Sed Rd.,90382,Wisconsin,"$87,161.03 ",Data_Analyst
Carlos Alexander,(711) 591-4743,porttitor.scelerisque@travelers.uk,7654 Sollicitudin Road,58747,Connecticut,"$53,764.19 ",HR_Specialist
Keaton Reeves,1-412-523-1148,amet.risus@travelers.com,611-6995 Enim. Av.,26875,Arkansas,"$76,589.06 ",Operations_Manager
Fulton Ramos,1-116-285-4865,aliquam.nisl@travelers.uk,462-2341 Interdum. Street,24355,Utah,"$61,214.27 ",IT_Specialist
Noel Todd,1-488-468-3048,ac.mattis.ornare@travelers.com,994-5551 Nullam Road,21183,Washington,"$60,055.00 ",Loss_Control_Specialist
TaShya Brown,(241) 630-3453,gravida.sagittis@travelers.com,"P.O. Box 361, 2645 Mauris Ave",56835,Utah,"$80,550.77 ",Legal_Counsel
Maile Strickland,1-970-990-4580,curabitur.vel@travelers.uk,"P.O. Box 643, 1415 Taciti Avenue",55438,Maryland,"$95,439.48 ",Claims_Adjuster
Halee Luna,(312) 981-7566,fusce@travelers.uk,202-3905 Vestibulum Rd.,52701,Maryland,"$64,587.23 ",Data_Analyst
Beatrice Collier,1-595-342-2537,risus.nulla@travelers.uk,"974-7858 Est, Avenue",71010,Vermont,"$99,287.67 ",Claims_Adjuster
Tarik Kidd,1-468-733-6851,fermentum.fermentum.arcu@travelers.uk,Ap #853-5808 Nam Rd.,19058,Minnesota,"$58,862.13 ",Operations_Manager
Hilda Aguilar,1-756-998-9721,justo.faucibus.lectus@travelers.uk,346-3012 Donec Av.,54752,Mississippi,"$80,821.82 ",HR_Specialist
Audra Alford,(454) 500-5617,et.pede.nunc@travelers.uk,Ap #820-501 Proin Rd.,41261,Minnesota,"$83,549.49 ",Financial_Analyst
Mariam Fuller,1-680-148-5772,lacus.pede@travelers.com,778-9741 Parturient Rd.,65026,Vermont,"$70,225.69 ",Loss_Control_Specialist
Marsden Cherry,1-392-716-0746,in.nec@travelers.uk,271-127 Morbi Av.,87012,Utah,"$66,873.64 ",Product_Manager
Autumn Day,(847) 535-4684,donec@travelers.uk,186-7636 Cras Road,61073,Wisconsin,"$65,752.57 ",Legal_Counsel
Lysandra Hendricks,1-914-646-6544,dolor.sit@travelers.com,"P.O. Box 117, 168 Faucibus. St.",77412,Delaware,"$62,791.57 ",Financial_Analyst
Gisela Vargas,1-308-232-8637,cras.convallis@travelers.uk,989-9188 Integer Ave,33165,Colorado,"$72,158.00 ",IT_Specialist
Xanthus Faulkner,(374) 611-3916,lectus@travelers.uk,387-5791 Aenean Street,73033,Iowa,"$58,656.86 ",Claims_Examiner
Nina Forbes,1-358-344-7531,lorem.fringilla@travelers.uk,Ap #165-5936 Ac St.,27785,Virginia,"$71,460.19 ",Sales_Manager
Penelope Ashley,1-367-729-5087,a@travelers.com,Ap #364-1617 Id St.,84271,Washington,"$45,017.53 ",Risk_Manager
Valentine Lang,(931) 582-8775,pede.suspendisse@travelers.uk,Ap #428-1877 Pulvinar Av.,86523,Ohio,"$87,217.12 ",Data_Analyst
Tobias Harris,(854) 436-7119,mi.eleifend@travelers.uk,"P.O. Box 950, 5348 Pellentesque Rd.",46202,Washington,"$72,857.08 ",Compliance_Officer
Aiko Poole,(920) 454-5814,est@travelers.uk,"P.O. Box 422, 784 Ac Road",23374,Minnesota,"$45,449.21 ",Operations_Manager
Zelenia Stevenson,(464) 262-7249,dolor@travelers.uk,Ap #940-4687 Eu St.,12027,Kentucky,"$48,619.66 ",Operations_Manager
Lionel Armstrong,1-411-683-2939,consectetuer.adipiscing.elit@travelers.com,Ap #425-7964 Fames St.,63629,Massachusetts,"$69,527.63 ",HR_Specialist
Teegan Kidd,1-804-648-1428,enim.mi@travelers.uk,"P.O. Box 874, 4708 Erat Rd.",44286,Wyoming,"$76,403.77 ",IT_Specialist
Bryar Dean,(415) 458-3615,imperdiet.nec@travelers.uk,Ap #334-1160 Sem Rd.,79440,Idaho,"$66,819.69 ",Customer_Service_Representative
Jessamine Wyatt,1-392-810-6461,sodales.elit@travelers.uk,396-3716 Ridiculus Rd.,84852,Texas,"$98,179.56 ",Compliance_Officer
Ria Blankenship,(329) 588-1623,malesuada.ut@travelers.uk,Ap #483-260 Ullamcorper St.,74130,Alaska,"$96,353.92 ",Compliance_Officer
Tatiana Turner,(387) 540-4009,convallis.in@travelers.uk,954 Quam St.,11374,Iowa,"$96,165.90 ",Loss_Control_Specialist
Scarlett Weeks,(253) 539-7535,sit.amet@travelers.uk,Ap #551-4427 Orci St.,32650,Oregon,"$59,485.39 ",Compliance_Officer
Gwendolyn Valencia,(834) 327-2383,sollicitudin@travelers.uk,Ap #782-1025 Lacus. Rd.,25447,Missouri,"$41,741.69 ",Legal_Counsel
Arthur Christian,1-113-306-1775,iaculis.aliquet.diam@travelers.uk,570-7138 Vestibulum Ave,72249,Pennsylvania,"$75,501.24 ",Operations_Manager
Nita Ferrell,(428) 709-4421,id.magna@travelers.uk,6305 Velit. Street,40846,Illinois,"$46,813.31 ",Training_and_Development_Manager
Dexter Randolph,(355) 546-3659,duis.mi@travelers.com,490-5156 Eu Rd.,61565,Idaho,"$42,111.30 ",Compliance_Officer
Castor Davis,(589) 233-7155,enim@travelers.uk,9602 Sapien. Rd.,35494,Ohio,"$85,398.35 ",Legal_Counsel
Maxwell Sargent,(175) 444-0521,vel.arcu@travelers.com,Ap #322-2066 Aenean Street,99966,Illinois,"$46,953.75 ",IT_Specialist
Anastasia Odom,(282) 224-2190,convallis.convallis@travelers.uk,143-5870 Tellus Avenue,36557,Indiana,"$95,411.23 ",Data_Analyst
Dean Carpenter,1-527-128-6373,interdum.sed.auctor@travelers.uk,Ap #404-3304 Euismod Rd.,62019,Arizona,"$64,017.07 ",Data_Analyst
Selma Mcneil,1-877-312-2712,sit.amet.massa@travelers.com,466-8449 Cursus. Avenue,36736,Wyoming,"$61,664.75 ",Sales_Manager
Laith Lopez,(810) 951-4755,mauris.vel@travelers.uk,Ap #101-173 Mi. Rd.,92517,Michigan,"$94,825.66 ",Data_Analyst
Dexter Mejia,(338) 158-5919,elementum.at@travelers.com,Ap #608-8128 Convallis Ave,72698,Pennsylvania,"$41,619.97 ",Operations_Manager
Kalia Myers,1-233-881-7935,congue.a@travelers.com,734-6973 Ac Rd.,68506,Nevada,"$92,915.60 ",Sales_Manager
Lillith Snider,1-685-285-3518,at.velit@travelers.com,928-2763 Ac St.,58569,Florida,"$92,586.14 ",Risk_Manager
Octavia Gross,1-302-122-4339,ullamcorper.eu@travelers.uk,156-9901 Ullamcorper Road,58253,Idaho,"$69,949.56 ",Sales_Manager
Nita Hammond,(947) 716-1355,elementum.dui.quis@travelers.com,754-3926 Justo Street,32782,Missouri,"$79,655.80 ",Operations_Manager
Lance Berry,1-956-614-4673,in@travelers.uk,"P.O. Box 299, 1720 Nunc Rd.",71887,Oklahoma,"$49,333.43 ",Insurance_Agent/Broker
Dorian Nicholson,(904) 731-4104,ac.fermentum.vel@travelers.com,771-2485 Semper Ave,99813,Connecticut,"$82,098.62 ",Loss_Control_Specialist
Upton Burris,1-285-474-2516,ornare.elit.elit@travelers.com,"Ap #791-2806 Fringilla, Ave",98627,Kentucky,"$82,216.87 ",Underwriter
Paul Jones,1-953-727-5645,dictum.placerat@travelers.uk,Ap #291-1728 Nunc St.,62383,Georgia,"$84,052.44 ",Legal_Counsel
Uriel Fulton,1-282-226-2145,urna@travelers.com,5854 Rutrum St.,96184,Florida,"$62,721.15 ",Data_Analyst
Finn Peters,1-335-652-1724,egestas.sed@travelers.uk,Ap #714-9605 Integer St.,54256,Georgia,"$48,100.70 ",Operations_Manager
Veronica Gallegos,(575) 852-0322,in.mi@travelers.com,Ap #964-4429 Malesuada Ave,32877,Michigan,"$89,372.49 ",Risk_Manager
Coby Graham,(394) 233-2631,in.faucibus@travelers.uk,665-2039 Erat St.,99576,Hawaii,"$90,479.48 ",Data_Analyst
Tanek Blanchard,1-764-717-2840,lorem.ipsum.dolor@travelers.com,"P.O. Box 612, 4689 Ullamcorper Avenue",43324,Minnesota,"$83,779.07 ",Legal_Counsel
Malik Mcgee,(537) 663-8314,nulla@travelers.com,Ap #684-6543 Nunc. Rd.,20272,Virginia,"$96,805.01 ",Claims_Adjuster
Kareem Campbell,1-651-647-1403,rutrum.magna@travelers.com,766-7125 Nullam Avenue,76373,Oregon,"$45,356.81 ",Compliance_Officer
Abraham Hansen,(871) 311-3195,lectus.pede@travelers.uk,425-324 Eros Ave,55085,Oklahoma,"$79,254.56 ",IT_Specialist
Colin Fitzpatrick,(226) 271-1130,justo@travelers.uk,"P.O. Box 732, 3241 Convallis St.",66606,Idaho,"$64,218.92 ",HR_Specialist
Baxter Munoz,(945) 986-2770,diam.at.pretium@travelers.com,"P.O. Box 421, 2993 Eget Ave",84363,Oregon,"$45,312.59 ",Product_Manager
Quentin Patton,1-420-895-9869,quam.elementum.at@travelers.uk,700-8659 Egestas. Street,83813,Tennessee,"$42,287.22 ",Risk_Manager
Silas Estes,(458) 945-3296,magnis@travelers.uk,703 Dolor Rd.,52398,Louisiana,"$76,609.04 ",Risk_Manager
Guy Crane,1-186-378-4222,phasellus.dolor@travelers.com,7654 Dolor Avenue,46433,Missouri,"$51,039.06 ",Financial_Analyst
Byron Lawson,1-895-465-4670,magnis@travelers.com,Ap #143-2708 Parturient Ave,37451,Montana,"$56,857.96 ",Insurance_Agent/Broker
Jameson Snow,1-248-673-0633,sociosqu.ad@travelers.uk,4475 Aliquam Street,58912,Wyoming,"$94,615.75 ",Legal_Counsel
Mari Pace,1-463-307-6348,tempus@travelers.uk,909-2942 Curae Ave,41795,Oklahoma,"$55,216.07 ",Marketing_Specialist
Cheryl Morrison,(340) 568-7295,ac.turpis.egestas@travelers.uk,Ap #683-2204 Eget Road,70881,Pennsylvania,"$95,049.89 ",Claims_Examiner
Cynthia Burnett,(379) 114-2132,cras@travelers.com,"835-5190 Non, Ave",28306,Connecticut,"$84,369.44 ",Financial_Analyst
Kelsie Frazier,(920) 365-3549,rutrum.lorem.ac@travelers.uk,"172-7995 In, Rd.",70162,Hawaii,"$59,874.28 ",Operations_Manager
Graham Pittman,1-478-203-6442,lacinia.sed@travelers.com,404 Lorem St.,55736,Missouri,"$45,941.87 ",Loss_Control_Specialist
Dane York,(443) 637-3129,molestie.sed@travelers.com,721-3107 Et Avenue,67686,Kentucky,"$70,306.41 ",Product_Manager
Naida Foley,1-485-891-0932,erat.etiam@travelers.uk,"Ap #752-4281 Elit, Rd.",88920,Maine,"$74,425.21 ",Risk_Manager
Cynthia Lambert,(548) 271-4853,tristique.aliquet.phasellus@travelers.uk,"P.O. Box 687, 8487 Conubia Ave",80357,Texas,"$84,023.96 ",Product_Manager
Hedy Dillard,(391) 116-1981,sed.id@travelers.com,893-8094 Fringilla Ave,42572,Pennsylvania,"$56,140.27 ",Customer_Service_Representative
Ivan Vaughan,1-336-559-1843,interdum.sed.auctor@travelers.uk,965-9866 Sociis Rd.,72618,Pennsylvania,"$94,488.12 ",Data_Analyst
Tanya Clark,(758) 711-4985,dapibus.id.blandit@travelers.com,647-2153 Elementum Rd.,33676,Louisiana,"$53,178.75 ",Insurance_Agent/Broker
Jared Harris,1-648-614-7794,aliquam.eu.accumsan@travelers.uk,197-5371 Cursus Av.,44826,Washington,"$88,308.93 ",Claims_Adjuster
Kylynn Bernard,1-112-694-5247,luctus@travelers.uk,"P.O. Box 332, 8964 Eu Ave",50242,Colorado,"$42,848.18 ",Sales_Manager
Hedley Rush,1-761-997-6352,semper.pretium@travelers.com,Ap #203-2452 At Street,17731,Kansas,"$99,260.76 ",Marketing_Specialist
Daria Griffith,(231) 621-5189,diam.dictum@travelers.uk,742-7002 Nec Street,68156,Ohio,"$77,649.67 ",Compliance_Officer
Vera Kirkland,1-448-934-5557,accumsan.sed.facilisis@travelers.uk,Ap #303-7596 Ipsum. St.,94776,Indiana,"$52,269.66 ",Sales_Manager
Roth Beach,(564) 913-4882,donec@travelers.uk,765-2174 Ac Avenue,75352,Illinois,"$41,286.61 ",Claims_Adjuster
Venus Elliott,1-584-122-7667,a.tortor@travelers.uk,496-4427 Justo. Road,26558,Illinois,"$58,279.80 ",Underwriter
Venus Alford,(622) 616-2487,libero.et@travelers.com,Ap #452-4128 Semper Avenue,27421,Louisiana,"$55,706.61 ",Claims_Adjuster
Rashad Goff,(826) 228-5516,orci.quis.lectus@travelers.uk,947-843 Cursus Rd.,35027,Missouri,"$62,567.05 ",Sales_Manager
MacKensie Carey,(707) 891-6242,sodales@travelers.uk,7640 Ullamcorper Ave,48474,Delaware,"$59,146.43 ",Loss_Control_Specialist
Gemma Freeman,(695) 487-8161,quisque.libero@travelers.com,"P.O. Box 819, 8812 Porttitor Avenue",79733,Maryland,"$54,233.14 ",Legal_Counsel
Aaron Rosa,1-560-375-2925,cras@travelers.uk,4695 Placerat. St.,27124,Delaware,"$66,003.06 ",Underwriter
Tarik Bruce,1-244-758-7235,cras.eu@travelers.com,Ap #824-1467 Metus. Rd.,28257,Iowa,"$76,546.52 ",Compliance_Officer
Noah Middleton,(925) 265-9246,turpis@travelers.uk,Ap #743-7877 Augue Street,86283,Maine,"$55,687.80 ",Training_and_Development_Manager
Tatyana Day,1-519-256-7213,nam.tempor.diam@travelers.com,"P.O. Box 227, 4870 Dolor. Rd.",71657,Indiana,"$76,963.27 ",Marketing_Specialist
Rudyard Holmes,1-364-752-8714,ultrices.iaculis@travelers.com,6422 Scelerisque St.,56163,Alaska,"$44,205.34 ",Claims_Examiner
Rafael George,1-837-645-4208,feugiat.non@travelers.uk,"6452 Enim, Ave",94576,Indiana,"$81,896.53 ",Insurance_Agent/Broker
Jada Mclaughlin,1-447-135-2557,semper@travelers.com,"Ap #639-7999 Ut, Rd.",21030,Tennessee,"$88,225.33 ",Insurance_Agent/Broker
Grady Bryant,(442) 768-5223,dui@travelers.com,103-6509 Iaculis Rd.,85465,Illinois,"$77,533.75 ",Loss_Control_Specialist
Tamekah Stein,1-453-692-3785,felis@travelers.uk,"P.O. Box 692, 2729 Neque. Av.",15757,Georgia,"$83,975.81 ",Loss_Control_Specialist
Louis Morris,1-289-662-3127,ut.nec.urna@travelers.com,"P.O. Box 371, 6028 Sapien Av.",52151,Alabama,"$66,273.09 ",Customer_Service_Representative
Rebekah Hampton,1-543-332-7337,libero.et@travelers.uk,"732-1086 Aliquam, Rd.",86831,Connecticut,"$57,094.87 ",Sales_Manager
Yetta Vance,1-464-530-3042,aliquam.ultrices@travelers.uk,1619 Nulla Av.,34517,Maine,"$68,187.82 ",Compliance_Officer
Jael Hunt,1-678-818-5873,cras.eget@travelers.com,"P.O. Box 989, 8171 Etiam Ave",77613,Georgia,"$55,591.01 ",Operations_Manager
Ivan Stanton,1-458-895-9422,proin.velit.sed@travelers.uk,199-972 Imperdiet Avenue,41364,Idaho,"$54,778.65 ",IT_Specialist
Ignacia Cross,(712) 488-5355,vitae@travelers.com,"252 A, Rd.",82126,Delaware,"$78,644.12 ",Claims_Examiner
Jerry Farmer,(293) 866-8942,elit.pretium@travelers.com,Ap #896-4239 Suspendisse Ave,93236,Kansas,"$82,264.41 ",Legal_Counsel
Elmo Cotton,1-249-269-1651,natoque.penatibus@travelers.uk,"P.O. Box 865, 4000 Nisi Street",77231,Texas,"$74,564.67 ",Sales_Manager
Hyacinth Bullock,(885) 435-9061,euismod.ac@travelers.uk,922-3300 Ornare Road,56177,Alaska,"$63,129.58 ",Insurance_Agent/Broker
Melinda Hood,(825) 914-3013,dolor.sit@travelers.uk,"P.O. Box 299, 3221 Mollis Street",85440,California,"$94,935.16 ",Legal_Counsel
Celeste Harper,(727) 143-9681,eleifend.vitae@travelers.com,409-2629 Arcu St.,87745,Tennessee,"$98,680.83 ",HR_Specialist
Tanek Zimmerman,1-344-776-1694,blandit.viverra.donec@travelers.uk,647-199 Pulvinar St.,87529,Delaware,"$71,079.94 ",IT_Specialist
Kellie Berger,1-884-899-9236,aliquam@travelers.com,541-225 Sagittis. Rd.,43564,Kentucky,"$87,839.05 ",Underwriter
Nina England,1-437-750-0553,sed.turpis@travelers.com,406-3487 Nec Ave,39421,Louisiana,"$46,264.89 ",Product_Manager
Macy Riggs,1-757-538-8419,sit@travelers.com,Ap #976-2480 Vitae Rd.,78015,Tennessee,"$81,951.13 ",Risk_Manager
Marny Cruz,(238) 711-3751,ut.sem@travelers.uk,"P.O. Box 498, 3226 Porttitor Avenue",63161,Alaska,"$97,875.85 ",Sales_Manager
Rose Downs,1-836-693-7437,montes.nascetur@travelers.uk,Ap #644-2631 Porttitor St.,72055,Oregon,"$79,755.73 ",Marketing_Specialist
Calista Dodson,(250) 575-0418,sit@travelers.uk,"Ap #327-6561 Elit, Rd.",37651,Tennessee,"$69,685.36 ",Sales_Manager
Renee Byrd,(215) 651-4874,cras.vulputate@travelers.uk,Ap #695-7331 Accumsan St.,83988,Texas,"$63,178.41 ",Financial_Analyst
Chloe Daniels,(177) 332-5812,purus.ac.tellus@travelers.uk,382-3497 Duis Road,18317,Oklahoma,"$64,565.22 ",Insurance_Agent/Broker
Nathan Travis,(715) 771-8717,sem.nulla@travelers.uk,105-9375 Vehicula. St.,44916,Kansas,"$48,475.01 ",Data_Analyst
Madonna Newman,(381) 257-6623,nec.orci@travelers.com,Ap #384-3282 Sit Rd.,14483,Colorado,"$98,233.69 ",Loss_Control_Specialist
Liberty David,1-521-484-8041,sed.est@travelers.uk,4229 Suspendisse Ave,95438,Oregon,"$96,028.27 ",IT_Specialist
Aristotle Barton,(110) 283-4761,nunc@travelers.uk,Ap #391-4212 Molestie Rd.,79348,Utah,"$94,107.42 ",Claims_Examiner
Josephine Bush,(572) 324-6965,lorem.sit.amet@travelers.com,Ap #617-7092 Risus Rd.,80018,Wyoming,"$88,891.66 ",Financial_Analyst
Zena Mcleod,1-882-513-1247,dis@travelers.com,476-7795 Convallis St.,65441,Missouri,"$61,363.87 ",Underwriter
Savannah Montgomery,(797) 759-0316,orci.in@travelers.com,4984 Pede Road,34458,Montana,"$42,992.05 ",HR_Specialist
Frances Frost,(548) 625-3521,per.conubia.nostra@travelers.uk,"628-1672 Non, Rd.",63837,Arizona,"$94,382.03 ",Legal_Counsel
Nasim Gilmore,1-237-188-6429,vel.turpis@travelers.com,Ap #544-4788 Proin Av.,31337,Washington,"$98,251.60 ",Risk_Manager
Jerome Moreno,1-397-316-7445,dolor.dapibus@travelers.uk,"P.O. Box 200, 5542 Ac Av.",62436,Pennsylvania,"$46,896.64 ",Sales_Manager
Chaney Burke,1-675-658-6867,aliquam.adipiscing.lobortis@travelers.com,550-2947 Scelerisque St.,52856,Wisconsin,"$63,695.76 ",IT_Specialist
Kermit Patton,1-648-941-1414,in.tincidunt.congue@travelers.uk,"Ap #582-3350 Sem, Rd.",35071,Pennsylvania,"$61,296.29 ",Underwriter
Berk Paul,1-592-367-5326,mi.lacinia.mattis@travelers.com,"5833 Dolor, St.",81926,Delaware,"$91,696.99 ",Training_and_Development_Manager
Wesley Bailey,1-755-657-8271,eu.turpis@travelers.com,"831-1461 Lobortis, Road",77723,Pennsylvania,"$83,794.17 ",Financial_Analyst
Sonia Horn,(294) 113-7951,urna.ut@travelers.com,Ap #256-9229 Amet St.,34755,Mississippi,"$76,273.36 ",Product_Manager
Hedda Velasquez,(507) 423-3043,ut@travelers.uk,361-5882 Integer Road,86358,Illinois,"$90,614.73 ",Claims_Adjuster
Larissa Franco,1-623-239-9511,est.ac@travelers.uk,7337 Tellus St.,55835,Pennsylvania,"$67,898.27 ",Product_Manager
Gavin Stevenson,(245) 768-4272,molestie.orci@travelers.uk,559-9166 Mollis Rd.,83236,Missouri,"$59,601.75 ",Marketing_Specialist
Zachery Franco,1-872-830-9401,risus.at@travelers.uk,642-7575 Taciti St.,85473,Missouri,"$59,859.02 ",Product_Manager
Scott Duke,(278) 317-6286,ipsum.donec@travelers.com,994-9471 Pretium Road,38855,Hawaii,"$46,429.27 ",Data_Analyst
Hamilton Mcfadden,(226) 227-0835,quis@travelers.uk,"P.O. Box 493, 2715 Sed St.",83426,Vermont,"$90,695.24 ",Claims_Examiner
Yvette Roach,1-245-440-7248,lobortis.mauris@travelers.com,Ap #221-910 Mollis. St.,87160,Vermont,"$64,980.39 ",Financial_Analyst
Mechelle Robles,(423) 875-7624,elementum.lorem.ut@travelers.uk,Ap #702-2055 Blandit Avenue,24385,Delaware,"$82,477.55 ",Underwriter
Leo Horn,(148) 111-6740,in.faucibus@travelers.uk,"473-3761 Convallis, Street",64487,Oklahoma,"$88,976.29 ",Risk_Manager
Myles Wilson,(846) 529-6354,rutrum@travelers.com,"P.O. Box 873, 6398 Sem St.",82807,Missouri,"$70,571.05 ",Insurance_Agent/Broker
Armand Vaughn,1-120-677-7797,nec@travelers.uk,Ap #935-938 Sed St.,76491,Montana,"$45,612.31 ",Operations_Manager
Gage Bryant,1-959-384-5492,quis.arcu@travelers.uk,994 Nunc Road,21640,Maine,"$47,042.59 ",Operations_Manager
Lester Bird,1-837-833-8143,non.vestibulum.nec@travelers.uk,Ap #203-3151 Nec Avenue,85379,Vermont,"$58,303.77 ",Underwriter
Valentine Haynes,(847) 756-5521,feugiat.sed@travelers.uk,199-7934 Malesuada Avenue,32412,California,"$67,960.12 ",Customer_Service_Representative
Rigel Arnold,(403) 871-0861,vel.quam@travelers.uk,Ap #221-5373 Ante Rd.,42418,Michigan,"$96,884.29 ",Product_Manager
Norman Nelson,(368) 787-1484,enim.nec@travelers.com,Ap #222-1090 Velit Road,35564,Pennsylvania,"$79,720.42 ",HR_Specialist
Lucian Randolph,(840) 632-5385,vulputate@travelers.uk,193-124 Dictum St.,34759,Oregon,"$81,991.24 ",Claims_Examiner
Buckminster Morales,(322) 874-2415,ridiculus.mus@travelers.uk,Ap #578-2724 Fermentum Avenue,71764,Alabama,"$82,634.63 ",Claims_Examiner
Sebastian Knowles,1-336-992-8303,non.ante.bibendum@travelers.com,"P.O. Box 881, 9374 Imperdiet St.",88155,Mississippi,"$43,761.12 ",Financial_Analyst
Lillith Kinney,(521) 646-0751,donec@travelers.com,"P.O. Box 363, 7149 Feugiat. St.",36037,Hawaii,"$69,488.37 ",Product_Manager
Ebony Gillespie,(368) 177-7514,aliquam.nec@travelers.com,"Ap #154-8165 Vitae, Street",88227,Wyoming,"$72,168.23 ",Underwriter
Lester Frye,(281) 553-6177,luctus@travelers.com,928-2535 Porttitor Street,71474,Minnesota,"$54,942.93 ",IT_Specialist
Calista William,1-442-113-7823,nullam.suscipit@travelers.uk,Ap #902-3541 Orci Av.,60178,Kentucky,"$67,977.41 ",Risk_Manager
McKenzie Clark,1-819-997-7973,morbi.tristique@travelers.uk,151-924 Sit Rd.,57926,Pennsylvania,"$50,709.57 ",Insurance_Agent/Broker
Mason Cameron,(325) 342-5563,felis.orci@travelers.com,107-3681 Morbi St.,51157,Missouri,"$89,829.90 ",IT_Specialist
Flynn Hunter,1-166-462-5185,sit.amet@travelers.com,512-4355 Phasellus St.,72864,Wyoming,"$61,962.80 ",Financial_Analyst
Daria Douglas,1-960-545-4668,nam.ac.nulla@travelers.com,344-6775 Risus. Street,67810,Arizona,"$68,057.06 ",Insurance_Agent/Broker
Hakeem Chan,1-210-587-2977,elementum.purus@travelers.uk,Ap #177-3890 Tempor Road,35455,Illinois,"$75,470.76 ",Loss_Control_Specialist
Camden Wade,1-492-866-5441,at.nisi.cum@travelers.com,463-1077 Quis St.,99888,Hawaii,"$49,961.36 ",Compliance_Officer
Stone Sanchez,(231) 445-9226,blandit.enim.consequat@travelers.com,436-8625 Donec Av.,86585,Pennsylvania,"$81,226.65 ",Loss_Control_Specialist
Kuame Small,1-334-254-5528,justo.eu@travelers.uk,"5423 Dui, St.",85324,Colorado,"$48,976.58 ",Claims_Examiner
Damon Pena,1-380-216-3655,velit.eget@travelers.com,"P.O. Box 670, 4872 Velit Av.",52873,Maine,"$52,109.89 ",Customer_Service_Representative
Ann Massey,1-314-888-2243,lobortis.class@travelers.com,"P.O. Box 774, 2482 Magna Street",61131,Kansas,"$89,238.68 ",Marketing_Specialist
Raphael Banks,1-885-768-1268,interdum.sed@travelers.uk,"P.O. Box 993, 7903 Purus. Rd.",99736,Mississippi,"$72,478.36 ",Training_and_Development_Manager
Dara Dejesus,(405) 357-6516,vitae@travelers.uk,364-7698 Odio Av.,78129,Ohio,"$84,359.20 ",Product_Manager
John Mosley,(681) 746-5063,purus.duis@travelers.com,Ap #360-9058 Placerat St.,86655,Virginia,"$56,782.82 ",Operations_Manager
Maia Molina,1-710-498-4757,ut.tincidunt.vehicula@travelers.com,Ap #679-1876 Curae Street,76621,Utah,"$44,353.96 ",Data_Analyst
Mara Rasmussen,1-817-681-7244,sed.nunc.est@travelers.com,326-4731 Cursus. Ave,60288,Delaware,"$94,661.84 ",Claims_Examiner
Jillian Washington,(303) 636-7018,mauris.vel.turpis@travelers.com,"P.O. Box 942, 5468 Tempus Avenue",52283,Alabama,"$85,351.72 ",Underwriter
Upton Burch,(464) 966-0247,hendrerit.id@travelers.uk,"8876 Ut, Street",46435,Illinois,"$81,724.18 ",HR_Specialist
Jenette Reese,(851) 423-9471,aliquam.iaculis@travelers.uk,Ap #914-7282 Cras Av.,66825,Iowa,"$45,544.45 ",Claims_Adjuster
Tashya Rice,(456) 853-3968,mauris.sagittis@travelers.com,165-3882 Vivamus Street,64575,California,"$52,317.72 ",Actuary
Branden Bender,(321) 582-5248,enim.mauris@travelers.uk,849-8617 Morbi Av.,98694,Tennessee,"$92,815.50 ",Actuary
Odessa Stout,(855) 302-4483,arcu.aliquam@travelers.com,"Ap #690-5567 Tincidunt, Street",27329,Oklahoma,"$89,353.35 ",Claims_Examiner
Indira Oneil,(198) 297-5147,fusce.dolor@travelers.uk,"P.O. Box 231, 1682 Faucibus Rd.",46572,Pennsylvania,"$62,944.21 ",Insurance_Agent/Broker
Cora Velasquez,1-274-659-1640,donec.egestas.duis@travelers.com,346-6859 Ipsum. Av.,61549,Nevada,"$77,059.71 ",Actuary
Kirsten Vinson,(161) 875-0462,non.luctus.sit@travelers.uk,912-7662 Hendrerit Avenue,59161,Nebraska,"$84,638.91 ",Compliance_Officer
Miranda Jensen,1-853-814-8343,fringilla.porttitor@travelers.com,"612-2452 Lobortis, Rd.",99668,Mississippi,"$43,220.89 ",Legal_Counsel
Caesar Shaw,1-307-818-7649,sed.neque@travelers.uk,Ap #423-1478 Sagittis Ave,28357,Maryland,"$41,775.01 ",HR_Specialist
Joseph Buck,(624) 531-6244,sagittis@travelers.com,710-3431 Arcu Avenue,64780,Kansas,"$86,021.01 ",Operations_Manager
Christopher Strickland,1-792-987-4279,diam.sed@travelers.uk,860-2018 Sit St.,56371,Kansas,"$94,596.96 ",Risk_Manager
Ray Randall,1-110-475-5322,ligula.tortor@travelers.com,"P.O. Box 794, 3473 Ornare Ave",99868,Alabama,"$65,154.26 ",HR_Specialist
Diana Kerr,1-562-695-2221,metus.vivamus.euismod@travelers.uk,9710 Per Rd.,51768,California,"$41,496.65 ",IT_Specialist
Lilah Arnold,1-649-728-4760,ipsum@travelers.uk,"P.O. Box 528, 5704 Et, St.",88988,Nebraska,"$47,000.38 ",Risk_Manager
Thomas Shelton,(772) 471-1113,litora.torquent@travelers.uk,2640 Tempor Avenue,29577,Nevada,"$76,645.04 ",Sales_Manager
Dara Gillespie,1-642-506-9725,est.tempor.bibendum@travelers.com,1799 Ligula St.,74351,Virginia,"$75,569.11 ",Risk_Manager
Benedict Forbes,1-728-283-6523,condimentum.donec@travelers.com,390-4824 Semper Avenue,11511,Louisiana,"$72,084.13 ",Customer_Service_Representative
Benedict Leonard,(717) 793-5874,neque.morbi@travelers.com,Ap #282-8997 Gravida St.,17983,Wyoming,"$91,724.66 ",Product_Manager
Rhea Wright,(842) 406-4856,iaculis@travelers.uk,9616 Nibh Road,34205,Minnesota,"$53,685.17 ",Marketing_Specialist
Zorita Kidd,(141) 678-3784,senectus.et.netus@travelers.uk,384-3893 Nunc Av.,87854,Indiana,"$98,386.16 ",Claims_Examiner
Mira Briggs,(617) 743-3174,ipsum.ac@travelers.uk,988-154 Et Av.,28241,Wyoming,"$90,021.52 ",Legal_Counsel
Adrienne Sparks,(854) 527-3302,vulputate.mauris@travelers.uk,839-7028 Nec St.,17321,Iowa,"$64,726.48 ",Claims_Examiner
Zena Davidson,(789) 301-8774,nec.luctus@travelers.com,"P.O. Box 851, 1229 Justo Street",33646,Montana,"$76,040.94 ",Sales_Manager
Grady Shaffer,(725) 281-1264,consectetuer.euismod@travelers.com,9850 Nec St.,99956,Arkansas,"$75,867.51 ",Financial_Analyst
Dolan Watkins,(322) 344-8421,fringilla.cursus@travelers.com,4052 Vivamus Rd.,47891,Minnesota,"$77,786.78 ",Legal_Counsel
Ignacia Cabrera,(530) 456-3654,tellus.aenean.egestas@travelers.com,Ap #378-4669 Consectetuer St.,32903,Georgia,"$63,129.78 ",Compliance_Officer
Vivian Lewis,1-558-206-8891,nunc.nulla@travelers.com,"P.O. Box 682, 6977 Torquent St.",83658,Texas,"$77,529.74 ",Risk_Manager
Alexa Snyder,1-578-790-2376,cursus.diam@travelers.uk,513-8181 Ac Road,63876,Georgia,"$42,051.58 ",Training_and_Development_Manager
Elliott Miles,(255) 491-4851,amet@travelers.uk,374-8073 Fusce St.,58582,Arizona,"$41,878.05 ",Product_Manager
Tatum Swanson,1-715-319-4636,ante.vivamus@travelers.com,"394-8034 A, St.",35451,Tennessee,"$74,471.33 ",Marketing_Specialist
Haviva Mckay,(687) 750-3079,interdum.libero@travelers.com,Ap #790-1327 Nunc Rd.,18877,Kentucky,"$87,817.27 ",Data_Analyst
Dahlia Lara,(183) 740-5736,non.lorem.vitae@travelers.com,"P.O. Box 840, 3782 Aliquam Rd.",27210,Iowa,"$55,782.02 ",Compliance_Officer
Stephen Dodson,(633) 380-3766,tincidunt@travelers.com,"P.O. Box 447, 3169 Nec St.",16611,Delaware,"$85,251.71 ",Risk_Manager
Rafael Henson,1-823-396-5872,lacus.nulla@travelers.uk,995-2496 Pede. Ave,24721,Nebraska,"$82,961.45 ",Operations_Manager
Hammett Howe,(396) 397-1652,nisl.arcu.iaculis@travelers.uk,185-6254 Iaculis Street,69118,Massachusetts,"$43,459.77 ",IT_Specialist
Rose Gordon,(677) 363-1488,pellentesque.ut@travelers.uk,381-3403 Dictum St.,36832,Vermont,"$82,612.08 ",Customer_Service_Representative
Gretchen Johnston,(414) 323-9019,rutrum.eu@travelers.uk,3013 Dui. Rd.,84186,Delaware,"$58,496.56 ",Data_Analyst
Chadwick George,1-470-473-6047,orci@travelers.com,"P.O. Box 863, 8952 Purus Ave",71647,Wisconsin,"$41,822.96 ",Sales_Manager
Hu Baird,1-179-257-7754,elementum.dui@travelers.com,"P.O. Box 890, 8822 Tincidunt. St.",41328,Ohio,"$85,892.53 ",Claims_Adjuster
Kessie Wagner,(638) 826-7484,est.mauris@travelers.uk,823 Faucibus Road,72532,Virginia,"$92,446.65 ",Customer_Service_Representative
Rebekah Ochoa,(659) 601-1267,ac.fermentum.vel@travelers.com,637-6521 Ornare. Ave,90644,Missouri,"$81,414.92 ",Marketing_Specialist
Desirae Townsend,1-585-841-1151,nec.urna@travelers.com,Ap #636-4237 Non St.,25355,Washington,"$93,626.03 ",Underwriter
Lee May,(327) 625-8343,lorem@travelers.uk,362-3065 Lorem Avenue,97340,Kentucky,"$69,147.98 ",Claims_Adjuster
Aladdin William,1-176-351-7863,dolor@travelers.com,"522-481 Quam, Rd.",61168,Wyoming,"$48,572.12 ",Product_Manager
Karen Mendez,1-833-762-4133,sagittis.felis@travelers.uk,Ap #784-8997 Nisi. St.,91658,Alabama,"$61,707.49 ",Insurance_Agent/Broker
Tobias Young,(573) 613-2739,velit.aliquam.nisl@travelers.uk,"P.O. Box 294, 5330 Quis, Street",90313,Wisconsin,"$82,535.18 ",IT_Specialist
Griffith Bond,(152) 455-7761,rhoncus@travelers.com,Ap #315-1022 Mauris St.,71465,Oregon,"$69,839.55 ",Training_and_Development_Manager
Paula Rose,(278) 384-4746,elit@travelers.com,5782 Non Avenue,78731,Texas,"$68,804.46 ",Claims_Examiner
Whitney Richardson,(410) 882-1887,nisl@travelers.com,905-8578 Tempor Ave,14230,Indiana,"$83,286.19 ",Legal_Counsel
Carter Riddle,(201) 102-4489,non.egestas.a@travelers.uk,"Ap #102-1414 A, St.",85878,Iowa,"$76,134.67 ",Data_Analyst
Ruth Travis,1-446-954-3486,consequat.lectus.sit@travelers.uk,Ap #777-6937 Proin Street,36341,Minnesota,"$43,728.63 ",Data_Analyst
Grady Stephenson,(956) 736-1152,quis@travelers.com,772-5440 Elit Rd.,55402,Texas,"$54,270.62 ",Marketing_Specialist
Yolanda Grimes,(704) 632-6061,sit.amet.risus@travelers.com,Ap #413-2917 Sit St.,47545,Wisconsin,"$58,600.59 ",Actuary
Jane Preston,1-745-953-4167,justo.sit.amet@travelers.com,"820-4554 A, Ave",60878,Maine,"$78,112.41 ",Marketing_Specialist
Yael Joyner,(140) 335-2585,faucibus.morbi@travelers.com,923-8262 Arcu St.,99956,Montana,"$72,021.90 ",IT_Specialist
Sylvester Ortiz,(343) 513-9285,ultricies@travelers.uk,Ap #329-8954 Duis Ave,51474,Texas,"$76,799.01 ",IT_Specialist
Elton Hill,1-228-913-6720,vestibulum.ante.ipsum@travelers.com,190-269 Congue Street,85367,Alabama,"$96,027.40 ",Insurance_Agent/Broker
Odessa Cantu,1-613-995-1436,faucibus.orci@travelers.uk,453-7032 Tristique St.,12281,Maryland,"$48,271.11 ",Underwriter
Lionel Mccarthy,(209) 434-9462,lorem@travelers.uk,Ap #443-6411 Pellentesque Street,85273,Ohio,"$60,482.73 ",Financial_Analyst
Daquan Mooney,1-768-687-2221,ut@travelers.com,267-5990 Interdum. Rd.,55840,Oklahoma,"$99,384.51 ",Actuary
Daquan Bentley,1-330-817-8697,nulla.eget@travelers.com,"P.O. Box 970, 9183 Sed St.",75720,Michigan,"$73,658.26 ",Risk_Manager
Thomas Hardy,(639) 964-4154,aliquet.odio@travelers.uk,Ap #131-7997 Curabitur Street,70545,Iowa,"$89,665.60 ",Compliance_Officer
Kylie Sexton,1-432-713-3842,ut.odio@travelers.uk,456-2422 Quam. Av.,56176,Georgia,"$76,604.45 ",Operations_Manager
Jameson George,1-743-967-5418,scelerisque@travelers.com,581-2638 Mattis. St.,82923,Georgia,"$74,647.33 ",Marketing_Specialist
Vivien Beard,1-228-225-7322,mi.lacinia.mattis@travelers.com,Ap #416-6696 Cum St.,71183,Nebraska,"$76,198.96 ",Insurance_Agent/Broker
Flavia Joseph,(701) 571-7141,amet.ante@travelers.com,1967 Erat. Road,36674,Missouri,"$81,823.59 ",Risk_Manager
Ahmed Pugh,1-333-648-8968,eu.elit@travelers.com,310-6245 Eleifend. St.,59956,Tennessee,"$91,831.16 ",Insurance_Agent/Broker
Lucas Holmes,(851) 654-4366,magnis.dis.parturient@travelers.com,960-1602 Torquent Road,12346,Texas,"$51,785.79 ",Underwriter
Walker Gilbert,(333) 750-0798,quisque.fringilla@travelers.uk,"6668 In, Ave",35408,Colorado,"$83,887.17 ",Insurance_Agent/Broker
Lyle Fuller,1-871-340-7063,diam.at@travelers.com,474-8005 Odio. Ave,24551,Illinois,"$89,649.29 ",Customer_Service_Representative
Aline Lewis,(202) 348-8807,ipsum.dolor.sit@travelers.uk,7659 Commodo St.,33173,Maryland,"$76,492.19 ",Risk_Manager
Nyssa Woodard,1-870-689-2677,a@travelers.com,217-413 Nulla Rd.,83748,Washington,"$54,075.65 ",Claims_Adjuster
Xandra Hardin,1-297-562-8766,velit.in.aliquet@travelers.uk,141-7615 A Avenue,11545,Oregon,"$62,912.33 ",Risk_Manager
Amanda Mccormick,(677) 508-7093,neque.tellus@travelers.uk,"Ap #760-3153 Purus, Rd.",26693,Mississippi,"$58,052.58 ",Compliance_Officer
Calvin Burnett,1-125-858-2753,aliquam.arcu.aliquam@travelers.com,2426 Interdum. Av.,10871,Oregon,"$98,354.40 ",Sales_Manager
Yvonne Powell,(863) 708-1249,vitae.risus.duis@travelers.com,796-5254 Vehicula. St.,58278,Iowa,"$81,525.83 ",Loss_Control_Specialist
Charde Briggs,1-868-554-1382,parturient@travelers.uk,Ap #441-8019 Dolor Rd.,63531,Michigan,"$70,330.46 ",HR_Specialist
Dieter Schwartz,1-511-368-6507,risus.duis.a@travelers.uk,579-5844 Mus. Ave,90127,Texas,"$99,209.17 ",Compliance_Officer
Quinlan Cruz,(864) 431-5675,vestibulum.ante@travelers.uk,574 Cras Rd.,94874,Kansas,"$54,356.82 ",Risk_Manager
Britanney Ray,1-274-782-4236,nulla@travelers.com,"741-4073 Et, Road",99801,Arizona,"$63,624.02 ",Claims_Adjuster
Jacqueline Perkins,(863) 332-3266,libero.et.tristique@travelers.uk,"Ap #126-3721 Amet, Av.",88312,Delaware,"$98,553.43 ",Claims_Examiner
Savannah Gilbert,(605) 147-4782,dolor.sit.amet@travelers.uk,Ap #650-7474 Mauris Road,81048,Texas,"$99,889.28 ",Operations_Manager
Ruth Gilbert,1-655-819-6404,velit@travelers.uk,Ap #918-7286 Ut Av.,43715,Washington,"$65,059.85 ",Risk_Manager
Neil Frost,(542) 821-5358,nunc.mauris@travelers.uk,"P.O. Box 699, 6892 Magna. Rd.",32683,Massachusetts,"$70,988.82 ",Loss_Control_Specialist
Dustin Rosales,(717) 545-1422,ac.facilisis@travelers.uk,281-2459 Vestibulum Rd.,72147,Wyoming,"$76,125.98 ",Underwriter
Briar Lynn,1-600-556-1846,convallis.dolor.quisque@travelers.com,Ap #992-1916 Lorem Rd.,29180,Alabama,"$65,141.22 ",Financial_Analyst
Lunea Mcneil,(152) 357-9262,vivamus.sit.amet@travelers.uk,"Ap #177-7934 Quam, St.",61660,Washington,"$74,212.67 ",Insurance_Agent/Broker
Sonya Valdez,(872) 486-5653,euismod@travelers.com,4318 A St.,87413,Indiana,"$77,796.38 ",Data_Analyst
Plato Flynn,(165) 337-2751,enim@travelers.uk,"466-3948 Sed, Rd.",54563,Missouri,"$86,962.39 ",Underwriter
May Ross,1-426-311-4764,nulla.vulputate.dui@travelers.com,183-3996 Euismod Street,94087,Oklahoma,"$72,814.22 ",Compliance_Officer
Avye Bond,1-856-728-6897,scelerisque.scelerisque.dui@travelers.com,Ap #524-5197 Dictum Rd.,30256,Wyoming,"$62,962.51 ",Underwriter
Shelby Howe,(684) 515-2231,amet.orci@travelers.uk,Ap #178-567 Nascetur Av.,31194,Nebraska,"$77,030.52 ",Operations_Manager
Alexis Mercer,1-828-479-1595,duis@travelers.uk,Ap #173-1013 Donec Rd.,77932,Wisconsin,"$74,788.51 ",Product_Manager
Wang Mccarthy,(501) 551-2550,mauris.non.dui@travelers.uk,606-6359 Ligula Avenue,42653,Nebraska,"$48,132.27 ",Claims_Examiner
Kirk Ballard,(574) 837-6842,risus.odio@travelers.com,353-1982 Et Road,78287,Iowa,"$66,546.43 ",IT_Specialist
Minerva Lancaster,1-473-262-8636,rutrum.justo@travelers.uk,552-6126 Magna. Street,58840,Wyoming,"$77,114.03 ",Actuary
Mara Osborn,1-775-287-1787,dignissim.lacus@travelers.com,4573 Accumsan Avenue,47823,Florida,"$45,944.62 ",Financial_Analyst
Driscoll Molina,1-604-751-6756,arcu@travelers.uk,Ap #106-414 Dignissim Av.,95438,Nebraska,"$98,891.08 ",HR_Specialist
Hunter Vega,(318) 984-2463,imperdiet@travelers.com,3322 Suspendisse Rd.,12585,Maine,"$85,610.41 ",Customer_Service_Representative
Porter Porter,(206) 246-4858,aliquam@travelers.com,4311 Malesuada St.,55559,Kentucky,"$69,704.94 ",Customer_Service_Representative
Garrison Winters,1-843-589-8017,non@travelers.com,Ap #734-5882 Nam Av.,74655,Maryland,"$97,010.86 ",Loss_Control_Specialist
Jameson Kidd,(247) 124-8552,lacus.etiam@travelers.com,"P.O. Box 764, 6541 Placerat Av.",83411,California,"$63,772.34 ",HR_Specialist
Wade Fulton,1-302-432-5064,turpis.egestas@travelers.uk,Ap #373-5084 Auctor St.,64121,Minnesota,"$70,564.59 ",Operations_Manager
Gavin Coleman,1-482-873-2621,rutrum@travelers.com,Ap #687-2049 Velit St.,26935,Alabama,"$62,791.65 ",Loss_Control_Specialist
Dalton Aguilar,(754) 211-7867,mauris.suspendisse@travelers.com,289-6605 Tellus Ave,28258,Montana,"$91,500.87 ",Compliance_Officer
Ulla Guerrero,1-186-515-1007,nulla.magna@travelers.uk,214-4178 Nibh Avenue,82647,Michigan,"$74,821.76 ",Insurance_Agent/Broker
Melanie Justice,1-286-686-5652,parturient.montes@travelers.com,Ap #805-5609 Quam. St.,49817,Georgia,"$63,216.32 ",Financial_Analyst
Amber Malone,(377) 468-3477,erat.vitae@travelers.uk,"P.O. Box 865, 3637 Tortor Rd.",53313,Wisconsin,"$51,635.86 ",Financial_Analyst
Felix Berger,(911) 827-7735,nulla@travelers.com,200-1344 Sed Street,52281,Arizona,"$70,555.05 ",Loss_Control_Specialist
Ira Sargent,(326) 860-2772,porttitor.scelerisque.neque@travelers.com,Ap #921-547 Risus. Street,47484,Vermont,"$99,980.20 ",Insurance_Agent/Broker
Maxwell Carpenter,1-410-579-1241,parturient.montes@travelers.uk,"P.O. Box 983, 513 Nec, Av.",68865,Arkansas,"$92,183.34 ",Loss_Control_Specialist